"abbrev_state","code_school","name_school","address","phone_number","geom","abrev","long","lat"
"691","RO","11","IFRO - CAMPUS COLORADO DO OESTE","BR 435 KM 63, S/Nº. CAIXA POSTAL 51. ZONA RURAL. 76993-000 Colorado do Oeste - RO.","(69) 33417602",c(-60.4862046, -13.1142503),"IF",-60.4862046,-13.1142503
"1258","RO","11","IFRO - CAMPUS GUAJARA-MIRIM","AVENIDA 15 DE NOVEMBRO, SN PLANALTO. 76850-000 Guajará-Mirim - RO.","(69) 99122682",c(-65.3156319446862, -10.761532774195),"IF",-65.3156319446862,-10.761532774195
"1293","RO","11","IFRO - CAMPUS JARU","AVENIDA VEREADOR OTAVIANO PEREIRA NETO, 874 SETOR 2. 76890-000 Jaru - RO.","(69) 999182512",c(-62.4524526, -10.4358767),"IF",-62.4524526,-10.4358767
"1392","RO","11","IFRO - CAMPUS JI-PARANA","RUA RIO AMAZONAS, 151 JARDIM DOS MIGRANTES. 76900-730 Ji-Paraná - RO.","(69) 21836907",c(-61.9681324996054, -10.8819235162809),"IF",-61.9681324996054,-10.8819235162809
"1404","RO","11","IFRO - CAMPUS VILHENA","BR 174 KM03, 4334 ZONA URBANA. 76982-270 Vilhena - RO.","(69) 21010703",c(-60.1190913, -12.7042354),"IF",-60.1190913,-12.7042354
"1405","RO","11","IFRO - CAMPUS PORTO VELHO ZONA NORTE","AVENIDA GOVERNADOR JORGE TEIXEIRA, 3146 INDUSTRIAL. 76821-002 Porto Velho - RO.","(69) 21823805",c(-63.8890624511987, -8.74117073602974),"IF",-63.8890624511987,-8.74117073602974
"1407","RO","11","IFRO - CAMPUS ARIQUEMES","AREA RURAL, S/N RO 257 KM 13. AREA RURAL DE ARIQUEMES. 76878-899 Ariquemes - RO.","(69) 999182508",c(-62.9625766666667, -9.94997666666667),"IF",-62.9625766666667,-9.94997666666667
"1408","RO","11","IFRO - CAMPUS PORTO VELHO CALAMA","AVENIDA CALAMA, 4985 LOTE 994, QUADRA 169. FLODOALDO PONTES PINTO. 76820-441 Porto Velho - RO.","(69) 21828901",c(-63.8715495, -8.7450971),"IF",-63.8715495,-8.7450971
"1409","RO","11","IFRO - CAMPUS CACOAL","BR 364 KM 228 LOTE 2A, S/N ZONA RURAL. 76960-970 Cacoal - RO.","(69) 34432445",c(-61.3798145, -11.4795691),"IF",-61.3798145,-11.4795691
"2860","AC","12","IFAC - CAMPUS CRUZEIRO DO SUL","ESTRADA DA APADEQ, 1192 RML FAZENDA MODELO. NOVA OLINDA. 69980-000 Cruzeiro do Sul - AC.","(68) 21066842",c(-72.7413246, -7.5817149),"IF",-72.7413246,-7.5817149
"2861","AC","12","IFAC - CAMPUS SENA MADUREIRA","FRANCISCA SOUZA DA SILVA, 318 GETULIO NUNES SAMPAIO. 69940-000 Sena Madureira - AC.","(68) 36123806",c(-68.6797884, -9.0820318),"IF",-68.6797884,-9.0820318
"2862","AC","12","IFAC - CAMPUS XAPURI","CORONEL BRANDAO, 1622 CENTRO. 69930-000 Xapuri - AC.","(68) 35422047",c(-68.49409908, -10.66080029),"IF",-68.49409908,-10.66080029
"2863","AC","12","IFAC - CAMPUS RIO BRANCO","AVENIDA BRASIL, 920 CONJUNTO XAVIER MAIA. 69903-068 Rio Branco - AC.","(68) 21065910",c(-67.8178746, -9.9310661),"IF",-67.8178746,-9.9310661
"2922","AC","12","IFAC - CAMPUS AVANCADO RIO BRANCO BAIXADA DO SOL","RUA RIO GRANDE DO SUL, 2600 AEROPORTO VELHO. 69911-030 Rio Branco - AC.","(68) 32246816",c(-67.82242095, -9.984810486),"IF",-67.82242095,-9.984810486
"2945","AC","12","IFAC - CAMPUS TARAUACA","BR 364, 821 PREDIO. RODOVIA. 69970-970 Tarauacá - AC.","(68) 34621709",c(-70.7708514, -8.1433284),"IF",-70.7708514,-8.1433284
"4303","AM","13","IFAM - CAMPUS MANAUS ZONA LESTE","AVENIDA COSME FERREIRA, 8045 SAO JOSE OPERARIO. 69083-000 Manaus - AM.","(92) 984358191",c(-59.93390095, -3.079984312),"IF",-59.93390095,-3.079984312
"4460","AM","13","IFAM - CAMPUS MANAUS CENTRO","AV. SETE DE SETEMBRO, 1975 CENTRO. 69020-120 Manaus - AM.","(92) 36216700",c(-60.0127673, -3.1342815),"IF",-60.0127673,-3.1342815
"7669","AM","13","IFAM - CAMPUS MANAUS DISTRITO INDUSTRIAL","AVENIDA GOVERNADOR DANILO AREOSA, 1672 DISTRITO INDUSTRIAL I. 69075-351 Manaus - AM.","(92) 36146207",c(-59.97452858, -3.13557217),"IF",-59.97452858,-3.13557217
"8382","AM","13","IFAM - CAMPUS HUMAITA","BR 230, KM 7, S/N ZONA RURAL. 69800-000 Humaitá - AM.","(97) 981159182",c(-63.0719871131982, -7.5513539619756),"IF",-63.0719871131982,-7.5513539619756
"8383","AM","13","IFAM - CAMPUS ITACOATIARA","RODOVIA AM-010 ZONA DE EXPANSAO, S/N KM 08. AREA RURAL DE ITACOATIARA. 69109-899 Itacoatiara - AM.","(92) 984526910",c(-58.4663, -3.07387833333333),"IF",-58.4663,-3.07387833333333
"8384","AM","13","IFAM - CAMPUS EIRUNEPE","RUA MONSENHOR COUTINHO, S/N APARECIDA. 69880-000 Eirunepé - AM.","(97) 34811353",c(-69.86360317, -6.66261103),"IF",-69.86360317,-6.66261103
"8386","AM","13","IFAM - CAMPUS TEFE","RUA JOAO ESTEFANO, 625 ANEXO A UAB. JURUA. 69552-250 Tefé - AM.","(97) 981181878",c(-64.718413297087, -3.35217097308487),"IF",-64.718413297087,-3.35217097308487
"8489","AM","13","IFAM - CAMPUS AVANCADO MANACAPURU","ESTRADA MANOEL URBANO, S/N KM 77. NOVA MANACA. 69401-830 Manacapuru - AM.","(92) 991929474",c(-60.6315029, -3.2613772),"IF",-60.6315029,-3.2613772
"8883","AM","13","IFAM - CAMPUS COARI","ESTRADA COARI ITAPEUA, S/N KM 02. ITAMARATY. 69460-000 Coari - AM.","(97) 35612470",c(-63.1334806513041, -4.10584291443229),"IF",-63.1334806513041,-4.10584291443229
"9294","AM","13","IFAM - CAMPUS MAUES","ESTRADA DOS MORAES, S/N SENADOR JOSE ESTEVES. 69190-000 Maués - AM.","(92) 992008338",c(-57.6966076065392, -3.39722537901569),"IF",-57.6966076065392,-3.39722537901569
"9299","AM","13","IFAM - CAMPUS PRESIDENTE FIGUEIREDO","AVENIDA ONCA PINTADA, 1308 GALO DA SERRA. 69735-000 Presidente Figueiredo - AM.","(92) 33241030",c(-60.0040129, -2.04930765),"IF",-60.0040129,-2.04930765
"9300","AM","13","IFAM - CAMPUS TABATINGA","RUA SANTOS DUMONT, S/Nº VILA VERDE. 69640-000 Tabatinga - AM.","(97) 34125142",c(-69.9148847, -4.2314422),"IF",-69.9148847,-4.2314422
"9301","AM","13","IFAM - CAMPUS PARINTINS","ESTRADA ODOVALDO NOVO, S/N DJARD VIEIRA. 69152-470 Parintins - AM.","(92) 35335766",c(-56.76885, -2.65456),"IF",-56.76885,-2.65456
"9302","AM","13","IFAM - CAMPUS LABREA","RUA 22 DE OUTUBRO, 3893 IFAM. VILA FALCAO. 69830-000 Lábrea - AM.","",c(-64.78370923, -7.25074489),"IF",-64.78370923,-7.25074489
"9334","RR","14","IFRR - CAMPUS BOA VISTA","AVENIDA GLAYCON DE PAIVA, 2496 PRICUMA. 69303-340 Boa Vista - RR.","(95) 36218008",c(-60.69423487, 2.812883314),"IF",-60.69423487,2.812883314
"9637","RR","14","IFRR - CAMPUS AMAJARI","RODOVIA ANTONINO MENEZES DA SILVA, KM 03, S/N RURAL. 69343-000 Amajari - RR.","(95) 35931143",c(-61.4107951, 3.6323376),"IF",-61.4107951,3.6323376
"9735","RR","14","IFRR - CAMPUS AVANCADO BONFIM","RUA RODRIGO PIRES FIGUEREDO, 44 CENTRO. 69380-000 Bonfim - RR.","",c(-59.8340659199458, 3.3579139888274),"IF",-59.8340659199458,3.3579139888274
"9736","RR","14","IFRR - CAMPUS BOA VISTA ZONA OESTE","RUA PROF. NONATO CHACON, 1976 LAURA MOREIRA. 69318-060 Boa Vista - RR.","(95) 36241703",c(-60.771405, 2.7901218),"IF",-60.771405,2.7901218
"10158","RR","14","IFRR - CAMPUS NOVO PARAISO","NOVO PARAISO, END. ROD. BR.174, KM - 512 NOVO PARAISO CARACARAI-RR., 69360-000 Caracaraí - RR.","(95) 35324100",c(-60.4851323, 1.2499684),"IF",-60.4851323,1.2499684
"12481","PA","15","IFPA - CAMPUS CASTANHAL","RODOVIA BR 316, KM 63 SAUDADE I. 68740-970 Castanhal - PA.","(91) 34121602",c(-47.95092577, -1.29874706),"IF",-47.95092577,-1.29874706
"16066","PA","15","IFPA - CAMPUS BRAGANCA","AVENIDA DOS BRAGANCANOS, S/N VILA SINHA. 68600-000 Bragança - PA.","(91) 989509007",c(-46.7851356, -1.0556816),"IF",-46.7851356,-1.0556816
"16179","PA","15","IFPA - CAMPUS CONCEICAO DO ARAGUAIA","AVENIDA COUTO MAGALHAES, 1649 SETOR UNIVERSITARIO. 68540-000 Conceição do Araguaia - PA.","(94) 34211962",c(-49.2591107, -8.2519239),"IF",-49.2591107,-8.2519239
"16800","PA","15","IFPA - CAMPUS SANTAREM","AVENIDA MARECHAL CASTELO BRANCO, 621 INTERVENTORIA. 68020-820 Santarém - PA.","(93) 35223757",c(-54.7088649, -2.4403656),"IF",-54.7088649,-2.4403656
"17575","PA","15","IFPA - CAMPUS BREVES","RUA ANTONIO FULGENCIO, SEM NUMERO PARQUE UNIVERSITARIO. 68800-000 Breves - PA.","(91) 91742874",c(-50.4642266, -1.688841),"IF",-50.4642266,-1.688841
"17576","PA","15","IFPA - CAMPUS ITAITUBA","RUA UNIVERSITARIO, S/N KM 05. MARIA MAGDALENA. 68183-300 Itaituba - PA.","(93) 991561867",c(-56.00197651, -4.222231343),"IF",-56.00197651,-4.222231343
"18206","PA","15","IFPA - CAMPUS OBIDOS","RODOVIA PA 437 KM 02, SEM NUMERO INDUSTRIAL. 68250-000 Óbidos - PA.","(93) 991477142",c(-55.5179882, -1.8815665),"IF",-55.5179882,-1.8815665
"18207","PA","15","IFPA - CAMPUS AVANCADO VIGIA","PA 140, KM 55, S/N SAO CRISTOVAO. 68780-000 Vigia - PA.","(91) 991218844",c(-48.0875513, -0.8707483),"IF",-48.0875513,-0.8707483
"18285","PA","15","IFPA - CAMPUS PARAUAPEBAS","RODOVIA PA 275, S/N LADO PORTARIA CARAJA. UNIAO. 68515-000 Parauapebas - PA.","(94) 991643364",c(-49.9149964, -6.0642564),"IF",-49.9149964,-6.0642564
"18301","PA","15","IFPA - CAMPUS ANANINDEUA","AVENIDA ARTERIAL - 5A, SN ANTIGA GRANJA DO GOV. ICUI GUAJARA. 67140-709 Ananindeua - PA.","(91) 33420719",c(-48.4072504205123, -1.34701879930298),"IF",-48.4072504205123,-1.34701879930298
"18334","PA","15","IFPA - CAMPUS PARAGOMINAS","AVENIDA DOS CEDROS, S/N JUPARANA. 68629-020 Paragominas - PA.","(91) 991337400",c(-47.3599175456911, -3.007443244569),"IF",-47.3599175456911,-3.007443244569
"18338","PA","15","IFPA - CAMPUS CAMETA","AVENIDA GENTIL BITTENCOURT, 1582 CENTRO. 68400-000 Cametá - PA.","(91) 991779840",c(-49.49738, -2.24367),"IF",-49.49738,-2.24367
"18936","PA","15","IFPA - CAMPUS ALTAMIRA","RODOVIA ERNESTO ACIOLY, S/N ZONA URBANA. 68371-000 Altamira - PA.","",c(-52.1818358565983, -3.18914211882775),"IF",-52.1818358565983,-3.18914211882775
"19039","PA","15","IFPA - CAMPUS MARABA RURAL","BR 155, ZONA RURAL, PA 26 DE MARCO, SENTIDO ELDORADO DOS CARAJAS, SN PA 26 DE MARCO, ZONA RURAL. 68508-970 Marabá - PA.","(94) 991131183",c(-49.100601, -5.5700496),"IF",-49.100601,-5.5700496
"20402","PA","15","IFPA - CAMPUS TUCURUI","AV. BRASILIA, SN VILA PERMANENTE. 68464-000 Tucuruí - PA.","(94) 37782102",c(-49.664565, -3.818005),"IF",-49.664565,-3.818005
"20404","PA","15","IFPA - CAMPUS MARABA INDUSTRIAL","FOLHA 22, QUADRA ESPECIAL, LOTE ESPECIAL II, NOVA MARABA. 68508-970 Marabá - PA.","(94) 21016306",c(-49.0986837, -5.3397927),"IF",-49.0986837,-5.3397927
"22549","PA","15","IFPA - CAMPUS ABAETETUBA","RUA RIO DE JANEIRO, 3322 MARGENS RIO JARUMA. FRANCILANDIA. 68440-000 Abaetetuba - PA.","(91) 33420709",c(-48.87655406, -1.70794201),"IF",-48.87655406,-1.70794201
"22615","PA","15","IFPA - CAMPUS BELEM","AV ALMIRANTE BARROSO, 1155 MARCO. 66093-020 Belém - PA.","(91) 32011703",c(-48.4605182, -1.438236),"IF",-48.4605182,-1.438236
"23305","AP","16","IFAP - CAMPUS LARANJAL DO JARI","NILO PECANHA, 1263 PROXIMO AO DETRAN AP. CAJARI. 68920-000 Laranjal do Jari - AP.","(96) 991812165",c(-52.51543, -0.8220449),"IF",-52.51543,-0.8220449
"23316","AP","16","IFAP - CAMPUS MACAPA","RODOVIA BR-210, S/N BRASIL NOVO. 68909-398 Macapá - AP.","(96) 31982176",c(-51.0914921388506, 0.08669884409763),"IF",-51.0914921388506,0.08669884409763
"23625","AP","16","IFAP - CAMPUS SANTANA","RODOVIA DUCA SERRA, 1133 FONTE NOVA. 68928-084 Santana - AP.","(96) 991483558",c(-51.1815822058493, -0.0204429027752),"IF",-51.1815822058493,-0.0204429027752
"23634","AP","16","IFAP - CAMPUS PORTO GRANDE","BR 210 KM 103, SN RETIRO DOS PINHAIS. 68997-000 Porto Grande - AP.","(96) 991659884",c(-51.3879835233571, 0.69749910850142),"IF",-51.3879835233571,0.69749910850142
"23657","AP","16","IFAP - CAMPUS AVANCADO OIAPOQUE","RUA JOAQUIM CAETANO DA SILVA, 870 CENTRO. 68980-000 Oiapoque - AP.","(96) 12345678",c(-51.8325211945921, 3.84872966911644),"IF",-51.8325211945921,3.84872966911644
"23658","AP","16","IFAP - CENTRO DE REFERENCIA EM EAD PEDRA BRANCA DO AMAPARI","AVENIDA FRANCISCO DUTRA, S/N CENTRAL. 68945-000 Pedra Branca do Amapari - AP.","(96) 12345678",c(-51.9518519975597, 0.77985040445312),"IF",-51.9518519975597,0.77985040445312
"23737","TO","17","IFTO - CAMPUS ARAGUATINS","POVOADO SANTA TEREZA, KM 05, S/N ZONA RURAL. 77950-000 Araguatins - TO.","(63) 34744828",c(-48.07150463, -5.64520829),"IF",-48.07150463,-5.64520829
"25190","TO","17","IFTO - CAMPUS ARAGUAINA","AVENIDA AMAZONAS, QD 56 LT 01. LOTEAMENTO ARAGUAINA SUL. 77826-170 Araguaína - TO.","(63) 34110300",c(-48.1935, -7.181755),"IF",-48.1935,-7.181755
"25346","TO","17","IFTO - CAMPUS PORTO NACIONAL","AVENIDA TOCANTINS, S/N LOTEAMENTO MAE DEDE. JARDIM AMERICA. 77500-000 Porto Nacional - TO.","(63) 33639700",c(-48.3984511904418, -10.6922619603574),"IF",-48.3984511904418,-10.6922619603574
"25485","TO","17","IFTO - CAMPUS GURUPI","ALAMEDA MADRID, 545 JARDIM SEVILHA. 77410-470 Gurupi - TO.","(63) 33115400",c(-49.05492, -11.73914),"IF",-49.05492,-11.73914
"25765","TO","17","IFTO - CAMPUS PALMAS","QUADRA AE 310 SUL AVENIDA NS 10, PLANO DIRETOR SUL. 77021-090 Palmas - TO.","(63) 32364000",c(-48.31248, -10.19938),"IF",-48.31248,-10.19938
"26019","TO","17","IFTO - CAMPUS DIANOPOLIS","RODOVIA TO-040, KM 349, LOTEAMENTO RIO PALMEIRA, LOTE 1, ZONA RURAL. 77300-000 Dianópolis - TO.","(63) 99694268",c(-46.765482, -11.63476601),"IF",-46.765482,-11.63476601
"26048","TO","17","IFTO - CAMPUS AVANCADO PEDRO AFONSO","RUA CEARA, 1441 SETOR ZACARIAS CAMPELO. 77710-000 Pedro Afonso - TO.","(63) 34661633",c(-48.1613566666667, -8.98775833333333),"IF",-48.1613566666667,-8.98775833333333
"26066","TO","17","IFTO - CAMPUS COLINAS DO TOCANTINS","AV. BERNARDO SAYAO, SEM NUMERO CHACARA RAIO DE SOL. SETOR SANTA MARIA. 77760-000 Colinas do Tocantins - TO.","(63) 999722908",c(-48.4756742598944, -8.0906338438454),"IF",-48.4756742598944,-8.0906338438454
"26067","TO","17","IFTO - CAMPUS AVANCADO FORMOSO DO ARAGUAIA","RUA DO ACUDE/LAGO MUNICIPAL, SN, CENTRO, 0 IFTO FORMOSO. CENTRO. 77470-000 Formoso do Araguaia - TO.","(63) 33571982",c(-49.5242404472083, -11.7974700406193),"IF",-49.5242404472083,-11.7974700406193
"26068","TO","17","IFTO - CAMPUS AVANCADO LAGOA DA CONFUSAO","RUA 02, SN QUADRA 5A, LOTE 01. SETOR LAGOA DA ILHA. 77493-000 Lagoa da Confusão - TO.","(63) 999426257",c(-49.6290786936879, -10.8003513794392),"IF",-49.6290786936879,-10.8003513794392
"26224","TO","17","IFTO - CAMPUS PARAISO DO TOCANTINS","BR 153 KM 480, DISTRITO AGROINDUSTRIAL. 77600-000 Paraíso do Tocantins - TO.","(63) 33610300",c(-48.88764, -10.26854),"IF",-48.88764,-10.26854
"26940","MA","21","IFMA - CAMPUS SAO LUIS MARACANA","AVENIDA DOS CURIOS, S/N VILA ESPERANCA. 65095-460 São Luís - MA.","(98) 33138585",c(-44.26771, -2.608631),"IF",-44.26771,-2.608631
"30422","MA","21","IFMA - CAMPUS IMPERATRIZ","AVENIDA NEWTON BELLO, S/N VILA MARIA. 65906-335 Imperatriz - MA.","(99) 35254745",c(-47.49644289, -5.49144111),"IF",-47.49644289,-5.49144111
"34634","MA","21","IFMA - CAMPUS BARREIRINHAS","RODOVIA/MA 225 KM 4, POVOADO SANTA CRUZ. 65590-000 Barreirinhas - MA.","(98) 984615242",c(-42.84983717, -2.78902806),"IF",-42.84983717,-2.78902806
"34636","MA","21","IFMA - CAMPUS SAO RAIMUNDO DAS MANGABEIRAS","BR 230, KM 319, SN ZONA RURAL. 65840-000 São Raimundo das Mangabeiras - MA.","(99) 989842268",c(-45.5173645913601, -7.03767824918032),"IF",-45.5173645913601,-7.03767824918032
"34719","MA","21","IFMA - CAMPUS TIMON","AVENIDA LUIS FIRMINO DE SOUSA, 3907 MUTIRAO. 65635-468 Timon - MA.","(99) 984225797",c(-42.85398, -5.111733),"IF",-42.85398,-5.111733
"34724","MA","21","IFMA - CAMPUS BACABAL","AVENIDA JOAO ALBERTO, SN AREAL. 65700-000 Bacabal - MA.","(99) 984075010",c(-44.81610017, -4.24084284),"IF",-44.81610017,-4.24084284
"34730","MA","21","IFMA - CAMPUS BARRA DO CORDA","BR 226, KM 303, 00 PREDIO. VILA NENZIN. 65950-000 Barra do Corda - MA.","(99) 984004671",c(-45.2741498406976, -5.48418624792248),"IF",-45.2741498406976,-5.48418624792248
"34734","MA","21","IFMA - CAMPUS PINHEIRO","RODOVIA MA 006, SN ENSEADA. 65200-000 Pinheiro - MA.","(98) 33810153",c(-45.1335712878947, -2.54080516158757),"IF",-45.1335712878947,-2.54080516158757
"34735","MA","21","IFMA - CAMPUS CAXIAS","UNIDADE OPERACIONAL RUA DESEMBARGADOR MORATO 487, SN CAIXA POSTAL 77. CENTRO. 65600-970 Caxias - MA.","",c(-43.3433102164418, -4.82018311042339),"IF",-43.3433102164418,-4.82018311042339
"34751","MA","21","IFMA - CAMPUS SAO LUIS MONTE CASTELO","AVENIDA GETULIO VARGAS, 04 MONTE CASTELO. 65030-005 São Luís - MA.","(98) 32619800",c(-44.27826606, -2.53595796),"IF",-44.27826606,-2.53595796
"34987","MA","21","IFMA - CAMPUS CODO","POVOADO PORAQUE, S/N ZONA RURAL. 65400-000 Codó - MA.","",c(-43.92766, -4.484127),"IF",-43.92766,-4.484127
"38839","MA","21","IFMA - CAMPUS COELHO NETO","AV. ANTONIO GUIMARAES, S/Nº OLHO DAGUINHA. 65620-000 Coelho Neto - MA.","(98) 984376551",c(-43.02547715, -4.26842718),"IF",-43.02547715,-4.26842718
"39125","MA","21","IFMA - CAMPUS VIANA","AVENIDA LUIS ALMEIDA COUTO, S/N CENTRO. 65215-000 Viana - MA.","(98) 33510335",c(-44.99986613, -3.21147768),"IF",-44.99986613,-3.21147768
"39126","MA","21","IFMA - CAMPUS AVANCADO ROSARIO","AVENIDA VITORINO FREIRE, SN CENTRO. 65150-000 Rosário - MA.","(98) 984035818",c(-44.2492016666667, -2.93701),"IF",-44.2492016666667,-2.93701
"39127","MA","21","IFMA - CAMPUS GRAJAU","BR 226, SN VILA NOVA. 65940-000 Grajaú - MA.","(99) 984255572",c(-46.10762127, -5.79606612),"IF",-46.10762127,-5.79606612
"39128","MA","21","IFMA - CAMPUS PEDREIRAS","RODOVIA MA-381 JOAO DO VALE, KM 0, BAIRRO DO DIOGO. 65725-000 Pedreiras - MA.","(99) 81719727",c(-44.60967203, -4.58541053),"IF",-44.60967203,-4.58541053
"39140","MA","21","IFMA - CAMPUS AVANCADO PORTO FRANCO","RUA CUSTODIO BARBOSA, 09 CENTRO. 65970-000 Porto Franco - MA.","",c(-47.4024931713939, -6.33986385539174),"IF",-47.4024931713939,-6.33986385539174
"39286","MA","21","IFMA - CAMPUS PRESIDENTE DUTRA","ENDERECO PROVISORIO - RUA ADALBERTO DE MACEDO, S/N UI JOANA LIMA DE MAC. PAULO FALCAO. 65760-000 Presidente Dutra - MA.","(99) 984209401",c(-44.50031584, -5.28606253),"IF",-44.50031584,-5.28606253
"39287","MA","21","IFMA - CAMPUS ITAPECURU MIRIM","RUA JOAO BATISTA PEREIRA DOS SANTOS, S/N CENTRO. 65485-000 Itapecuru Mirim - MA.","(98) 984159189",c(-44.36230023, -3.40474599),"IF",-44.36230023,-3.40474599
"39385","MA","21","IFMA - CAMPUS AVANCADO CAROLINA","PRACA DO ESTUDANTE, 64 CENTRO. 65980-000 Carolina - MA.","(99) 984026394",c(-47.46779806, -7.33656331),"IF",-47.46779806,-7.33656331
"39386","MA","21","IFMA - CAMPUS ARAIOSES","RUA JOSE DE ALENCAR, S/N CUMPRIDA. 65570-000 Araioses - MA.","(98) 984206080",c(-41.9144491106272, -2.8909421665594),"IF",-41.9144491106272,-2.8909421665594
"40078","MA","21","IFMA - CAMPUS SANTA INES","AVENIDA MARECHAL CASTELO BRANCO, S/N CANAA. 65300-640 Santa Inês - MA.","(98) 984613403",c(-45.3982391394675, -3.65979205816984),"IF",-45.3982391394675,-3.65979205816984
"40079","MA","21","IFMA - CAMPUS ZE DOCA","RUA DA TECNOLOGIA, 215 VILA AMORIM. 65365-000 Zé Doca - MA.","(98) 36554951",c(-45.65185, -3.285696),"IF",-45.65185,-3.285696
"40080","MA","21","IFMA - CAMPUS ALCANTARA","RUA DO FORTE, S/N CENTRO. 65250-000 Alcântara - MA.","(98) 991372385",c(-44.41308957, -2.40825899),"IF",-44.41308957,-2.40825899
"40081","MA","21","IFMA - CAMPUS SAO LUIS CENTRO HISTORICO","RUA AFONSO PENA, 174 CENTRO. 65010-030 São Luís - MA.","(98) 32226374",c(-44.30376, -2.532039),"IF",-44.30376,-2.532039
"40082","MA","21","IFMA - CAMPUS BURITICUPU","RUA DEPUTADO GASTAO VIEIRA, 1.000 VILA MANSUETO. 65393-000 Buriticupu - MA.","(98) 984613143",c(-46.4494012109935, -4.32145467493683),"IF",-46.4494012109935,-4.32145467493683
"40083","MA","21","IFMA - CAMPUS ACAILANDIA","AVENIDA PROJETADA, SN VILA PROGRESSO II. 65930-000 Açailândia - MA.","(99) 35384118",c(-47.47956, -4.952357),"IF",-47.47956,-4.952357
"45855","PI","22","IFPI - CAMPUS PICOS","AVENIDA PEDRO MARQUES DE MEDEIROS, PARQUE INDUSTRIAL. 64605-500 Picos - PI.","",c(-41.40244739, -7.07031524),"IF",-41.40244739,-7.07031524
"45861","PI","22","IFPI - CAMPUS FLORIANO","RUA FRANCISCO URQUIZA MACHADO, 462 CAMPO VELHO. 64808-475 Floriano - PI.","(89) 35156401",c(-43.04269049, -6.78914258),"IF",-43.04269049,-6.78914258
"45862","PI","22","IFPI - CAMPUS PARNAIBA","AVENIDA MONSENHOR ANTONIO SAMPAIO, S/N DIRCEU ARCOVERDE. 64211-145 Parnaíba - PI.","(86) 33156900",c(-41.7315, -2.947228),"IF",-41.7315,-2.947228
"45863","PI","22","IFPI - CAMPUS PIRIPIRI","AV. RIO DOS MATOS, GERMANO. 64260-000 Piripiri - PI.","",c(-41.7936284188181, -4.28955801296979),"IF",-41.7936284188181,-4.28955801296979
"45864","PI","22","IFPI - TERESINA ZONA SUL","AV. PEDRO FREITAS, 1020 VERMELHA. 64018-000 Teresina - PI.","",c(-42.81401045, -5.10225453),"IF",-42.81401045,-5.10225453
"45865","PI","22","IFPI - CAMPUS ANGICAL","RUA NASCIMENTO, 746 CENTRO. 64410-000 Angical do Piauí - PI.","(86) 32981484",c(-42.7331168018281, -6.08398358803242),"IF",-42.7331168018281,-6.08398358803242
"45866","PI","22","IFPI - CAMPUS CORRENTE","RUA PROJETADA 06, 380 NOVA CORRENTE. 64980-000 Corrente - PI.","(89) 35733009",c(-45.1733566666667, -10.4304216666667),"IF",-45.1733566666667,-10.4304216666667
"45869","PI","22","IFPI - CAMPUS TERESINA CENTRAL","PRACA DA LIBERDADE, 1597 CENTRO. 64000-040 Teresina - PI.","(86) 31319402",c(-42.81097, -5.088811),"IF",-42.81097,-5.088811
"45871","PI","22","IFPI - CAMPUS SAO RAIMUNDO NONATO","RODOVIA BR 020, PRIMAVERA. 64770-000 São Raimundo Nonato - PI.","",c(-42.6934197, -9.0457886),"IF",-42.6934197,-9.0457886
"45929","PI","22","IFPI - CAMPUS PAULISTANA","RODOVIA BR 407, KM 05, S/N. LAGOA DOS CANUDOS. 64750-000 Paulistana - PI.","",c(-41.1652361949966, -8.09457479163989),"IF",-41.1652361949966,-8.09457479163989
"46627","PI","22","IFPI - CAMPUS OEIRAS","RUA PROJETADA, UBERABA II. 64500-000 Oeiras - PI.","",c(-42.1013757772744, -6.99995637405664),"IF",-42.1013757772744,-6.99995637405664
"46662","PI","22","IFPI - CAMPUS COCAL","RODOVIA PI 213, KM 21, ZONA RURAL. 64235-000 Cocal - PI.","",c(-41.5831666666667, -3.46221),"IF",-41.5831666666667,-3.46221
"46663","PI","22","IFPI - CAMPUS CAMPO MAIOR","LOCALIDADE FAZENDINHA, S/N FAZENDINHA. 64280-000 Campo Maior - PI.","(86) 994069900",c(-42.1469483333333, -4.864855),"IF",-42.1469483333333,-4.864855
"46664","PI","22","IFPI - CAMPUS SAO JOAO DO PIAUI","TRAVESSA 7 DE SETEMBRO, CENTRO. 64760-000 São João do Piauí - PI.","",c(-42.2539154, -8.36232333),"IF",-42.2539154,-8.36232333
"46665","PI","22","IFPI - CAMPUS PEDRO II","RUA ANTONINO MARTINS DE ANDRADE, 750 ENGENHO NOVO. 64255-000 Pedro II - PI.","(86) 95306445",c(-41.45760568, -4.44803487),"IF",-41.45760568,-4.44803487
"46666","PI","22","IFPI - CAMPUS VALENCA DO PIAUI","AVENIDA JOAQUIM MANOEL, AREA URBANA. 64300-000 Valença do Piauí - PI.","",c(-41.7474116666667, -6.42435166666667),"IF",-41.7474116666667,-6.42435166666667
"46745","PI","22","IFPI - CAMPUS AVANCADO DIRCEU ARCOVERDE","RUA NASCIMENTO, S/N, CENTRO, 64082-140 Teresina - PI.","(86) 994829500",c(-42.73876953125, -5.09939813613892),"IF",-42.73876953125,-5.09939813613892
"46746","PI","22","IFPI - CAMPUS AVANCADO JOSE DE FREITAS","RUA HERCULANO DA ROCHA, S/N BEZERRO. 64110-000 José de Freitas - PI.","(86) 994078731",c(-42.6104922, -4.7651331),"IF",-42.6104922,-4.7651331
"46748","PI","22","IFPI - CAMPUS AVANCADO PIO IX","PI 142, KM 2, ZONA RURAL. 64660-000 Pio IX - PI.","",c(-40.6172947, -6.8526653),"IF",-40.6172947,-6.8526653
"47100","PI","22","IFPI - CAMPUS URUCUI","RODOVIA PI 247 , KM 07, PORTAL DOS CERRADOS, 247 PORTAL DOS CERRADOS. 64860-000 Uruçuí - PI.","(89) 35443111",c(-44.5107712559976, -7.27843937786527),"IF",-44.5107712559976,-7.27843937786527
"49901","CE","23","IFCE - CAMPUS FORTALEZA","AVENIDA TREZE DE MAIO, 2081 BENFICA. 60040-215 Fortaleza - CE.","(85) 33073666",c(-38.5356, -3.744075),"IF",-38.5356,-3.744075
"52365","CE","23","IFCE - CAMPUS IGUATU","RODOVIA CE-060 KM 05, S/N CAJAZEIRAS. 63503-790 Iguatu - CE.","(88) 35821000",c(-39.270463, -6.39350595),"IF",-39.270463,-6.39350595
"52945","CE","23","IFCE - CAMPUS CRATO","RODOVIA CE - 292, GISELIA PINHEIRO. 63115-500 Crato - CE.","(88) 35868114",c(-39.44891301, -7.20480522),"IF",-39.44891301,-7.20480522
"54137","CE","23","IFCE - CAMPUS JUAZEIRO DO NORTE","AVENIDA GOVERNADOR PLACIDO ADERALDO CASTELO, 1646 LAGOA SECA. 63040-540 Juazeiro do Norte - CE.","(88) 21015300",c(-39.30613, -7.244796),"IF",-39.30613,-7.244796
"55237","CE","23","IFCE - CAMPUS ARACATI","CE 040, KM 137.1, S/N AEROPORTO. 62800-000 Aracati - CE.","(88) 33031200",c(-37.7914524066915, -4.5672043933024),"IF",-37.7914524066915,-4.5672043933024
"55245","CE","23","IFCE - CAMPUS TIANGUA","RODOVIA CE 187, 0 SAIDA P VICOSA. AEROPORTO. 62320-000 Tianguá - CE.","(88) 36717900",c(-41.01269021, -3.73286517),"IF",-41.01269021,-3.73286517
"55246","CE","23","IFCE - CAMPUS ACARAU","AV. DES. ARMANDO DE SALES LOUZADA, S/N PROXIMO AO FORUM. MONSENHOR JOSE EDSON MAGALHAES. 62580-000 Acaraú - CE.","(88) 36614103",c(-40.1132756844163, -2.88906822446734),"IF",-40.1132756844163,-2.88906822446734
"55247","CE","23","IFCE - CAMPUS QUIXADA","AVENIDA JOSE DE FREITAS QUEIROZ, 5000 CEDRO. 63902-580 Quixadá - CE.","(88) 34120111",c(-39.05897969, -4.97860681),"IF",-39.05897969,-4.97860681
"55248","CE","23","IFCE - CAMPUS TAUA","AVENIDA ANTONIO TEIXEIRA BENEVIDES, 01 COLIBRIS. 63660-000 Tauá - CE.","(88) 34374249",c(-40.3003192786503, -6.00218530744873),"IF",-40.3003192786503,-6.00218530744873
"55266","CE","23","IFCE - CAMPUS BATURITE","RUA OUVIDOR MOR VITORIANO SOARES BARBOSA, 01 SANHARAO. 62760-000 Baturité - CE.","(85) 33479150",c(-38.8639233134839, -4.34306062723882),"IF",-38.8639233134839,-4.34306062723882
"55399","CE","23","IFCE - CAMPUS CEDRO","ALAMEDA JOSE QUINTINO, S/N PRADO. 63400-000 Cedro - CE.","(88) 35641000",c(-39.05525, -6.601066),"IF",-39.05525,-6.601066
"55435","CE","23","IFCE - CAMPUS JAGUARIBE","RUA PEDRO BEZERRA DE MENEZES, 387 MANOEL COSTA MORAIS. 63475-000 Jaguaribe - CE.","(88) 35221117",c(-38.6096150614681, -5.87930602022063),"IF",-38.6096150614681,-5.87930602022063
"55704","CE","23","IFCE - CAMPUS CAUCAIA","RUA FRANCISCO DA ROCHA MARTINS, SN PABUSSU. 61600-050 Caucaia - CE.","(85) 37871450",c(-38.6723283333333, -3.73076166666667),"IF",-38.6723283333333,-3.73076166666667
"55712","CE","23","IFCE - CAMPUS UBAJARA","RUA LUIZ CUNHA, 178 MONTE CASTELO. 62350-000 Ubajara - CE.","(88) 36349600",c(-40.91746, -3.844558),"IF",-40.91746,-3.844558
"55713","CE","23","IFCE - CAMPUS TABULEIRO DO NORTE","RODOVIA CE 377 KM 2, S/N SITIO TAPERINHA. 62960-000 Tabuleiro do Norte - CE.","(88) 34012282",c(-38.1452535, -5.23743965),"IF",-38.1452535,-5.23743965
"55714","CE","23","IFCE - CAMPUS MORADA NOVA","AV. PREFEITO RAIMUNDO JOSE RABELO, 2717 JULIA SANTIAGO. 62940-000 Morada Nova - CE.","(88) 34223727",c(-38.36547799, -5.09051577),"IF",-38.36547799,-5.09051577
"56073","CE","23","IFCE - CAMPUS CAMOCIM","RUA DOUTOR RAIMUNDO CALS, 2041 CIDADE COM DEUS. 62400-000 Camocim - CE.","(88) 36210649",c(-40.8602816666667, -2.89821666666666),"IF",-40.8602816666667,-2.89821666666666
"56509","CE","23","IFCE - CAMPUS ITAPIPOCA","AVENIDA DA UNIVERSIDADE, 102 MADALENAS. 62505-090 Itapipoca - CE.","(85) 34012374",c(-39.56966581, -3.48909742),"IF",-39.56966581,-3.48909742
"56510","CE","23","IFCE - CAMPUS JAGUARUANA","AV. ANTONIO DA ROCHA FREITAS, 1566 CENTRO. 62823-970 Jaguaruana - CE.","(88) 992060142",c(-37.7864326, -4.83749164),"IF",-37.7864326,-4.83749164
"56512","CE","23","IFCE - CAMPUS GUARAMIRANGA","SITIO GUARAMIRANGA, S/N CENTRO. 62766-000 Guaramiranga - CE.","(85) 33074009",c(-38.9319154993062, -4.26692700013916),"IF",-38.9319154993062,-4.26692700013916
"56885","CE","23","IFCE - CAMPUS BOA VIAGEM","BR 020 KM 209, SN ANAFUE. 63870-000 Boa Viagem - CE.","(88) 989566689",c(-39.7067057229154, -5.08300499742965),"IF",-39.7067057229154,-5.08300499742965
"56886","CE","23","IFCE - CAMPUS HORIZONTE","RUA FRANCISCA CECILIA DE SOUSA, S/N PLANALTO HORIZONTE. 62884-105 Horizonte - CE.","(85) 989566693",c(-38.4806550387293, -4.11387604661286),"IF",-38.4806550387293,-4.11387604661286
"56888","CE","23","IFCE - CAMPUS PARACURU","RODOVIA CE 341, KM 02 PARQUE NOVO PARACURU. 62680-000 Paracuru - CE.","(85) 34012210",c(-39.04363931, -3.44481503),"IF",-39.04363931,-3.44481503
"57426","CE","23","IFCE - CAMPUS ACOPIARA","ROD. CE 060, KM 332, S/N VILA MARTINS. 63560-000 Acopiara - CE.","(88) 34012217",c(-39.4744612555951, -6.06631093192846),"IF",-39.4744612555951,-6.06631093192846
"57427","CE","23","IFCE - CAMPUS MARANGUAPE","AVENIDA JOAQUIM LOPES DE ABREU, RODOVIA CE - 065. NOVO PARQUE IRACEMA. 61949-210 Maranguape - CE.","(85) 996678811",c(-38.6840085902486, -3.91677441543574),"IF",-38.6840085902486,-3.91677441543574
"57873","CE","23","IFCE - CAMPUS MARACANAU","AVENIDA PARQUE CENTRAL, DISTRITO INDUSTRIAL I. 61939-140 Maracanaú - CE.","(85) 38786301",c(-38.611047277263, -3.87273183558497),"IF",-38.611047277263,-3.87273183558497
"58062","CE","23","IFCE - CAMPUS LIMOEIRO DO NORTE","RUA ESTEVAM REMIGIO, 1145 CENTRO. 62930-000 Limoeiro do Norte - CE.","(85) 34012290",c(-38.09371603, -5.14555588),"IF",-38.09371603,-5.14555588
"58198","CE","23","IFCE - CAMPUS CANINDE","RODOVIA BR 020, KM 303, S/N JUBAIA. 62700-000 Canindé - CE.","(85) 33430566",c(-39.3127008, -4.3905464),"IF",-39.3127008,-4.3905464
"58203","CE","23","IFCE - CAMPUS CRATEUS","AVENIDA DOUTOR GERALDO BARBOSA MARQUES, 567 VENANCIOS. 63708-260 Crateús - CE.","(88) 36923864",c(-40.6582195870578, -5.17129667568952),"IF",-40.6582195870578,-5.17129667568952
"61171","RN","24","IFRN - CAMPUS NATAL - CENTRAL","AVENIDA SENADOR SALGADO FILHO, 1559, TIROL, 59015-000 Natal - RN.","",c(-35.20444, -5.812038),"IF",-35.20444,-5.812038
"61782","RN","24","IFRN - CAMPUS MOSSORO","RUA RAIMUNDO FIRMINO DE OLIVEIRA, 400 ULRICK GRAFF. 59628-330 Mossoró - RN.","(84) 34222652",c(-37.32, -5.2135),"IF",-37.32,-5.2135
"62705","RN","24","IFRN - CAMPUS NOVA CRUZ","AV JOSE RODRIGUES DE AQUINO FILHO, 640 RN 120. ALTO DE SANTA LUZIA. 59215-000 Nova Cruz - RN.","(84) 40054107",c(-35.445194, -6.47132323),"IF",-35.445194,-6.47132323
"62706","RN","24","IFRN - CAMPUS PARNAMIRIM","RUA ANTONIA DE LIMA PAIVA, 155 NOVA ESPERANCA. 59143-455 Parnamirim - RN.","(84) 40054108",c(-35.26622, -5.939247),"IF",-35.26622,-5.939247
"62709","RN","24","IFRN - CAMPUS NATAL - CIDADE ALTA","AVENIDA RIO BRANCO, 743, CIDADE ALTA, 743 CIDADE ALTA. 59025-002 Natal - RN.","(84) 40050950",c(-35.20745, -5.788747),"IF",-35.20745,-5.788747
"62710","RN","24","IFRN - CAMPUS SAO GONCALO DO AMARANTE","RUA PROF CARLOS GUEDES ALCOFORADO, SN, CENTRO, SN CENTRO. 59291-727 São Gonçalo do Amarante - RN.","(84) 40054111",c(-35.33813975, -5.78953114),"IF",-35.33813975,-5.78953114
"62825","RN","24","IFRN - CAMPUS CURRAIS NOVOS","RUA MANOEL LOPES FILHO, N773, VALFREDO GALVAO, 773 VALFREDO GALVAO. 59380-000 Currais Novos - RN.","(84) 40054103",c(-36.53412, -6.253073),"IF",-36.53412,-6.253073
"62826","RN","24","IFRN - CAMPUS IPANGUACU","RN 118, S/N, POVOADO BASE FISICA, ZONA RURAL, 59508-000 Ipanguaçu - RN.","(84) 40054104",c(-36.8714, -5.535398),"IF",-36.8714,-5.535398
"62827","RN","24","IFRN - CAMPUS NATAL - ZONA NORTE","RUA BRUSQUE, 2926 CONJUNTO SANTA CATA. POTENGI. 59112-490 Natal - RN.","(84) 40069504",c(-35.26055, -5.749118),"IF",-35.26055,-5.749118
"62924","RN","24","IFRN - CAMPUS CANGUARETAMA","BR101, KM 160, S/N AREIA BRANCA. 59190-000 Canguaretama - RN.","(84) 40054114",c(-35.16161041, -6.35790418),"IF",-35.16161041,-6.35790418
"62925","RN","24","IFRN - CAMPUS CEARA-MIRIM","BR406, KM 145, S/N PLANALTO. 59570-000 Ceará-Mirim - RN.","(84) 40054113",c(-35.4289073590519, -5.65120635554721),"IF",-35.4289073590519,-5.65120635554721
"62926","RN","24","IFRN - CAMPUS SAO PAULO DO POTENGI","RN120, KM 2, NOVO JUREMAL. 59460-000 São Paulo do Potengi - RN.","(84) 40054112",c(-35.75475, -5.895578),"IF",-35.75475,-5.895578
"63019","RN","24","IFRN - CAMPUS AVANCADO PARELHAS","RUA DR MAURO DUARTE, S/N, JOSE CLOVIS, 59360-000 Parelhas - RN.","(84) 40054115",c(-36.66820731, -6.69907977),"IF",-36.66820731,-6.69907977
"63529","RN","24","IFRN - CAMPUS SANTA CRUZ","RUA SAO BRAZ, 304, BAIRRO PARAISO, 304 PARAISO. 59200-000 Santa Cruz - RN.","(84) 40054110",c(-36.0278016666667, -6.228475),"IF",-36.0278016666667,-6.228475
"63530","RN","24","IFRN - CAMPUS MACAU","RUA DAS MARGARIDAS, 300 COHAB. 59500-000 Macau - RN.","(84) 40054106",c(-36.5745495366342, -5.15102510817655),"IF",-36.5745495366342,-5.15102510817655
"63531","RN","24","IFRN - CAMPUS APODI","RN 233 KM 02 CHAPADA DO APODI APODI/RN 59700000, 59700-000 Apodi - RN.","(84) 40054101",c(-37.80776102, -5.62674059),"IF",-37.80776102,-5.62674059
"63532","RN","24","IFRN - CAMPUS PAU DOS FERROS","BR 405, KM 154, CHICO CAJA. 59900-000 Pau dos Ferros - RN.","(84) 40054109",c(-38.20466, -6.14618),"IF",-38.20466,-6.14618
"63533","RN","24","IFRN - CAMPUS JOAO CAMARA","BR 406, KM 73,, 3500 PERIMETRO RURAL. PERIMETRO RURAL. 59550-000 João Câmara - RN.","(84) 40054105",c(-35.7983309403062, -5.54384603630751),"IF",-35.7983309403062,-5.54384603630751
"63534","RN","24","IFRN - CAMPUS CAICO","RN 288, S/N, NOVA CAICO, 59300-000 Caicó - RN.","",c(-37.06898, -6.446315),"IF",-37.06898,-6.446315
"63862","PB","25","IFPB - CAMPUS CAJAZEIRAS","R JOSE ANTONIO DA SILVA, 300 JARDIM OASIS. 58900-000 Cajazeiras - PB.","(83) 35324100",c(-38.5447480995208, -6.88966637011617),"IF",-38.5447480995208,-6.88966637011617
"64123","PB","25","IFPB - CAMPUS SOUSA","AVENIDA PRESIDENTE TANCREDO NEVES, S/N JARDIM SORRILANDIA III. 58800-970 Sousa - PB.","(83) 35561029",c(-38.23071449, -6.78016581),"IF",-38.23071449,-6.78016581
"67363","PB","25","IFPB - CAMPUS JOAO PESSOA","AVENIDA PRIMEIRO DE MAIO, 720 CAMPUS JOAO PESSOA. JAGUARIBE. 58015-430 João Pessoa - PB.","(83) 36121200",c(-34.87419, -7.13499),"IF",-34.87419,-7.13499
"68646","PB","25","IFPB - CAMPUS GUARABIRA","RUA PROFESSOR CARLOS LEONARDO ARCOVERDE, SN KM-02. RODOVIA PB 057. 58200-000 Guarabira - PB.","(83) 981956465",c(-35.469996, -6.8574604),"IF",-35.469996,-6.8574604
"68842","PB","25","IFPB - CAMPUS AVANCADO CABEDELO CENTRO","RUA PASTOR JOSE ALVES DE OLIVEIRA, SN KM 1 BR 230. CENTRO. 58100-222 Cabedelo - PB.","(83) 32485400",c(-34.83291692, -6.9729009),"IF",-34.83291692,-6.9729009
"68843","PB","25","IFPB - CAMPUS CATOLE DO ROCHA","RUA CICERO PEREIRA DE LIMA, 227 JOAO PEREIRA DE LIMA. 58884-000 Catolé do Rocha - PB.","(83) 991164749",c(-37.75555133, -6.34091022),"IF",-37.75555133,-6.34091022
"68860","PB","25","IFPB - CAMPUS AVANCADO JOAO PESSOA MANGABEIRA","AVENIDA HILTON SOUTO MAIOR, SN SEDE PROVISORIA. MANGABEIRA. 58055-018 João Pessoa - PB.","(83) 991197136",c(-34.8254923, -7.1631705),"IF",-34.8254923,-7.1631705
"68862","PB","25","IFPB - CAMPUS ITABAIANA","RODOVIA PB 054 , KM 17, SN PROXIMO AO HRI. ALTO ALEGRE. 58360-000 Itabaiana - PB.","(83) 991271232",c(-35.3457855340093, -7.30454186908901),"IF",-35.3457855340093,-7.30454186908901
"68863","PB","25","IFPB - CAMPUS ESPERANCA","JOAQUIM VIRGULINO DA SILVA, SN CENTRO. 58135-000 Esperança - PB.","(83) 991265817",c(-35.8614190947598, -7.02360578813313),"IF",-35.8614190947598,-7.02360578813313
"68864","PB","25","IFPB - CAMPUS ITAPORANGA","BR 361, KM 116, SN 58780-000 Itaporanga - PB.","(83) 999348385",c(-38.1417138409225, -7.31872128323402),"IF",-38.1417138409225,-7.31872128323402
"68871","PB","25","IFPB - CAMPUS AVANCADO SOLEDADE","BR 230, KM 215, SN SAO JOSE. 58155-000 Soledade - PB.","(83) 996570900",c(-36.3565756, -7.06039978),"IF",-36.3565756,-7.06039978
"69042","PB","25","IFPB - CAMPUS AVANCADO AREIA","RUA VIGARIO ODILON, 152 CENTRO. 58397-000 Areia - PB.","(83) 33622206",c(-35.70444947, -6.97054562),"IF",-35.70444947,-6.97054562
"69043","PB","25","IFPB - CAMPUS SANTA LUZIA","RA DEPUTADO JADER MEDEIROS, S/N CENTRO. 58600-000 Santa Luzia - PB.","(83) 996343047",c(-36.91978544, -6.87390276),"IF",-36.91978544,-6.87390276
"69044","PB","25","IFPB - CAMPUS AVANCADO PEDRAS DE FOGO","RUA ANDRE VIDAL DE NEGREIROS, S/N CENTRO. 58328-000 Pedras de Fogo - PB.","(83) 991247874",c(-35.1169151, -7.40205166),"IF",-35.1169151,-7.40205166
"69121","PB","25","IFPB - CAMPUS CAMPINA GRANDE","RUA TRANQUILINO COELHO LEMOS, 671 DINAMERICA. 58432-300 Campina Grande - PB.","(83) 21026200",c(-35.91678, -7.239935),"IF",-35.91678,-7.239935
"69313","PB","25","IFPB - CAMPUS PATOS","AC RODOVIA PB 110, SN ALTO DA TUBIBA. 58708-500 Patos - PB.","(83) 34239676",c(-37.28582082, -7.07457291),"IF",-37.28582082,-7.07457291
"69314","PB","25","IFPB - CAMPUS CABEDELO","RUA SANTA RITA DE CASSIA, 1900 JARDIM CAMBOINHA. 58103-772 Cabedelo - PB.","(83) 32485400",c(-34.83432, -7.004212),"IF",-34.83432,-7.004212
"69315","PB","25","IFPB - CAMPUS PRINCESA ISABEL","SITIO BARRO VERMELHO, SN ZONA RURAL. 58755-000 Princesa Isabel - PB.","(83) 991920331",c(-38.0178909, -7.7577244),"IF",-38.0178909,-7.7577244
"69316","PB","25","IFPB - CAMPUS PICUI","ACESSO A RODOVIA PB 151, S/N CENECISTA. 58187-000 Picuí - PB.","(83) 33712727",c(-36.3611619919538, -6.50877043604851),"IF",-36.3611619919538,-6.50877043604851
"69317","PB","25","IFPB - CAMPUS MONTEIRO","AC RODOVIA PB - 264, S/N VILA SANTA MARIA. 58500-000 Monteiro - PB.","(83) 33513703",c(-37.1198827307671, -7.90561799425632),"IF",-37.1198827307671,-7.90561799425632
"70758","PE","26","IF SERTAO-PE - CAMPUS PETROLINA ZONA RURAL","PE 647, KM 22, PISNC N - 4, ZONA RURAL, PISNC N - 4. 56302-970 Petrolina - PE.","(87) 21018050",c(-40.68848, -9.336241),"IF",-40.68848,-9.336241
"70826","PE","26","IF SERTAO-PE - CAMPUS PETROLINA","RUA MARIA LUZIA DE ARAUJO GOMES CABRAL, SN JOAO DE DEUS. 56316-686 Petrolina - PE.","(87) 21014300",c(-40.53954, -9.362303),"IF",-40.53954,-9.362303
"71406","PE","26","IFPE - CAMPUS BELO JARDIM","RUA SEBASTIAO RODRIGUES DA COSTA, S/N SAO PEDRO. 55155-730 Belo Jardim - PE.","(81) 34113200",c(-36.41664363, -8.31978683),"IF",-36.41664363,-8.31978683
"73876","PE","26","IFPE - CAMPUS VITORIA DE SANTO ANTAO","FAZENDA TERRA PRETA, S/N MATRIZ. 55602-970 Vitória de Santo Antão - PE.","(81) 31141981",c(-35.2915349830184, -8.10100141182105),"IF",-35.2915349830184,-8.10100141182105
"74006","PE","26","IFPE - CAMPUS BARREIROS","FAZENDA SAPE, SN ZONA RURAL. 55560-000 Barreiros - PE.","(81) 36751117",c(-35.1956660673022, -8.82306712679565),"IF",-35.1956660673022,-8.82306712679565
"75593","PE","26","IFPE - CAMPUS RECIFE","AV PROF LUIZ FREIRE, 500 CIDADE UNIVERSITARIA. 50740-545 Recife - PE.","(81) 21251789",c(-34.95026603, -8.05913962),"IF",-34.95026603,-8.05913962
"76181","PE","26","IFPE - CAMPUS AFOGADOS DA INGAZEIRA","RUA EDSON BARBOSA DE ARAUJO, S/N MANOELA VALADARES. 56800-000 Afogados da Ingazeira - PE.","(87) 32111207",c(-37.63202826, -7.76407529),"IF",-37.63202826,-7.76407529
"76236","PE","26","IFPE - CAMPUS PESQUEIRA","BR 232 KM 208, SN PRADO. 55200-000 Pesqueira - PE.","(87) 34011112",c(-36.6801990196109, -8.3665389334783),"IF",-36.6801990196109,-8.3665389334783
"77002","PE","26","IFPE - CAMPUS GARANHUNS","RUA RUA PADRE AGOBAR VALENCA, S/N SEVERIANO DE MORAES FILHO. 55299-387 Garanhuns - PE.","(87) 32213100",c(-36.4618927, -8.8770367),"IF",-36.4618927,-8.8770367
"79163","PE","26","IF SERTAO-PE - CAMPUS SANTA MARIA DA BOA VISTA","BR 428, KM 94, S/N PREDIO DEFINITIVO. ZONA RURAL. 56380-000 Santa Maria da Boa Vista - PE.","(87) 999528816",c(-39.87628348, -8.78862301),"IF",-39.87628348,-8.78862301
"79167","PE","26","IF SERTAO-PE - CAMPUS SERRA TALHADA","RODOVIA PE 320, KM 126, ZONA RURAL, AREA RURAL DE SERRA TALHADA. 56915-899 Serra Talhada - PE.","",c(-38.227847808452, -7.97535134479838),"IF",-38.227847808452,-7.97535134479838
"79241","PE","26","IFPE - CAMPUS PAULISTA","AVENIDA DR. RODOLFO AURELIANO, 2182 VILA TORRES GALVAO. 53403-740 Paulista - PE.","(81) 31179402",c(-34.87170648, -7.95730877),"IF",-34.87170648,-7.95730877
"79249","PE","26","IFPE - CAMPUS JABOATAO DOS GUARARAPES","AV. BARAO DE LUCENA, 251 JABOATAO CENTRO. 54410-390 Jaboatão dos Guararapes - PE.","(81) 32017312",c(-35.0161494221538, -8.11239556409419),"IF",-35.0161494221538,-8.11239556409419
"79250","PE","26","IFPE - CAMPUS CABO DE SANTO AGOSTINHO","RUA SEBASTIAO JOVENTINO, S/Nº DESTILARIA. 54510-110 Cabo de Santo Agostinho - PE.","(81) 38785805",c(-35.02591741, -8.27556802),"IF",-35.02591741,-8.27556802
"79251","PE","26","IFPE - CAMPUS OLINDA","AVENIDA FAGUNDES VARELA, 375 JARDIM ATLANTICO. 53140-110 Olinda - PE.","(81) 32141812",c(-34.84094759, -7.97786792),"IF",-34.84094759,-7.97786792
"79252","PE","26","IFPE - CAMPUS IGARASSU","AVENIDA ALFREDO BANDEIRA DE MELO, 320 BR- KM 43,5. CENTRO. 53610-000 Igarassu - PE.","(81) 84916606",c(-34.91038741, -7.84413523),"IF",-34.91038741,-7.84413523
"79253","PE","26","IFPE - CAMPUS PALMARES","BR 101, KM 186, S/N ENGENHO SAO MANOEL. 55540-000 Palmares - PE.","",c(-35.56907946, -8.6655148),"IF",-35.56907946,-8.6655148
"79503","PE","26","IFPE - CAMPUS ABREU E LIMA","RUA CORONEL URBANO RIBEIRO DE SENA, 81 COLEGIO SAO JOSE. TIMBO. 53520-560 Abreu e Lima - PE.","(81) 984917819",c(-34.90438429, -7.90941265),"IF",-34.90438429,-7.90941265
"79821","PE","26","IFPE - CAMPUS IPOJUCA","PE 60, KM 14, S/N CALIFORNIA. 55590-000 Ipojuca - PE.","(81) 33112513",c(-35.04140451, -8.38482299),"IF",-35.04140451,-8.38482299
"79889","PE","26","IF SERTAO-PE - CAMPUS FLORESTA","RUA PROJETADA,, S/N CAETANO II - N4. 56400-000 Floresta - PE.","(87) 38772708",c(-38.58154705, -8.60277875),"IF",-38.58154705,-8.60277875
"80320","PE","26","IF SERTAO-PE - CAMPUS OURICURI","ESTRADA DO TAMBORIL, S/N 56200-000 Ouricuri - PE.","(87) 81223778",c(-40.0998952124641, -7.88548666231698),"IF",-40.0998952124641,-7.88548666231698
"80321","PE","26","IF SERTAO-PE - CAMPUS SALGUEIRO","RODOVIA BR 232, KM 508, SEM NUMERO ZONA RURAL. 56000-000 Salgueiro - PE.","(87) 34210050",c(-39.09498, -8.057998),"IF",-39.09498,-8.057998
"82055","AL","27","IFAL - CAMPUS MACEIO","AVENIDA DO FERROVIARIO, 530 CENTRO. 57020-600 Maceió - AL.","(82) 21267000",c(-35.73201026, -9.66424835),"IF",-35.73201026,-9.66424835
"82202","AL","27","IFAL - CAMPUS SATUBA","CENTRO, SN AREA URBANA. 57120-000 Satuba - AL.","(82) 21266500",c(-35.8205309137702, -9.57354761660099),"IF",-35.8205309137702,-9.57354761660099
"82508","AL","27","IFAL - CAMPUS SANTANA DO IPANEMA","AL 130, 1609 DOMINGOS ACACIO. 57500-000 Santana do Ipanema - AL.","(82) 31941150",c(-37.2425583333333, -9.38453333333333),"IF",-37.2425583333333,-9.38453333333333
"82509","AL","27","IFAL - CAMPUS SAO MIGUEL DOS CAMPOS","RUA VISCONDE DE SINIMBU, 32 CENTRO. 57240-008 São Miguel dos Campos - AL.","(82) 21266592",c(-36.0958603, -9.78179893),"IF",-36.0958603,-9.78179893
"82511","AL","27","IFAL - CAMPUS PIRANHAS","AVENIDA SERGIPE, S/N IFAL. XINGO. 57460-000 Piranhas - AL.","(82) 21266430",c(-37.7658327, -9.62202383),"IF",-37.7658327,-9.62202383
"82512","AL","27","IFAL - CAMPUS ARAPIRACA","RODOVIA AL 110, 359 DEPUTADO NEZINHO. 57301-100 Arapiraca - AL.","(82) 81060559",c(-36.6312816666667, -9.74531333333333),"IF",-36.6312816666667,-9.74531333333333
"82517","AL","27","IFAL - CAMPUS MURICI","LOTEAMENTO PREFEITO PEDRO TENORIO RAPOSO, S/N BR 104, KM 57. 57820-000 Murici - AL.","(82) 21266340",c(-35.9362456, -9.3085417),"IF",-35.9362456,-9.3085417
"82519","AL","27","IFAL - CAMPUS MARAGOGI","RODOVIA AL 101 NORTE, S/N KM 139. PEROBA. 57955-000 Maragogi - AL.","(82) 21266270",c(-35.1744374, -8.94335716),"IF",-35.1744374,-8.94335716
"82527","AL","27","IFAL - CAMPUS PENEDO","RODOVIA ENGENHEIRO JOAQUIM GONCALVES, S/N LOTEAMENTO SAO JOSE. DOM CONSTANTINO. 57200-000 Penedo - AL.","(82) 31941150",c(-36.5442821, -10.28627454),"IF",-36.5442821,-10.28627454
"82722","AL","27","IFAL - CAMPUS BATALHA","AVENIDA GOVERNADOR AFRANIO LAGES, S/N POLO AGROALIMENTAR. CENTRO. 57420-000 Batalha - AL.","(82) 31941150",c(-37.1270293090492, -9.6691170707345),"IF",-37.1270293090492,-9.6691170707345
"82723","AL","27","IFAL - CAMPUS RIO LARGO","RODOVIA BR 104, KM 91 - 1º RETORNO NO SENTIDO DO AEROPORTO INTERNACIONAL ZUMBI DOS PALMARES., S/N ANTIGO ESPACO REVIVE. TABULEIRO DO PINTO. 57100-971 Rio Largo - AL.","(82) 21266290",c(-35.804003, -9.5111994),"IF",-35.804003,-9.5111994
"82724","AL","27","IFAL - CAMPUS CORURIPE","RODOVIA ENGENHEIRO GUTTEMBERG BREDA NETO, S/N AL-101 SUL. ALTO DO CRUZEIRO. 57230-000 Coruripe - AL.","(82) 21266240",c(-36.1566525, -10.12603423),"IF",-36.1566525,-10.12603423
"82725","AL","27","IFAL - CAMPUS VICOSA","RUA MOTA LIMA, 35 CENTRO. 57700-000 Viçosa - AL.","(82) 21266490",c(-36.2413917202502, -9.37093568500131),"IF",-36.2413917202502,-9.37093568500131
"82810","AL","27","IFAL - CAMPUS MACEIO BENEDITO BENTES","AVENIDA BENEDITO BENTES, S/N BENEDITO BENTES. 57084-649 Maceió - AL.","(82) 21266230",c(-35.7294346299022, -9.55149541608989),"IF",-35.7294346299022,-9.55149541608989
"83180","AL","27","IFAL - CAMPUS MARECHAL DEODORO","RUA LOURIVAL ALFREDO, 176 POEIRA. 57160-000 Marechal Deodoro - AL.","(82) 21266300",c(-35.8936099, -9.7124212),"IF",-35.8936099,-9.7124212
"84522","SE","28","IFS - CAMPUS LAGARTO","RUA CAUBY, 523 ZONA RURAL. JARDIM CAMPO NOVO. 49400-000 Lagarto - SE.","(79) 33211505",c(-37.6569299, -10.9387678),"IF",-37.6569299,-10.9387678
"85026","SE","28","IFS - CAMPUS ARACAJU","AVENIDA ENG GENTIL TAVARES DA MOTA, 1166 GETULIO VARGAS. 49055-260 Aracaju - SE.","(79) 37113100",c(-37.0650023873895, -10.9153950959444),"IF",-37.0650023873895,-10.9153950959444
"85144","SE","28","IFS - CAMPUS SAO CRISTOVAO","BR 101 - KM 96, S/N ZONA RURAL. POVOADO QUISSAMA. 49100-000 São Cristóvão - SE.","(79) 37113051",c(-37.1857802, -10.9136605),"IF",-37.1857802,-10.9136605
"85988","SE","28","IFS - CAMPUS ESTANCIA","RUA JOAO CAFE FILHO, 260 PREDIO. CIDADE NOVA. 49200-000 Estância - SE.","(79) 37113291",c(-37.4224533333333, -11.23591),"IF",-37.4224533333333,-11.23591
"86006","SE","28","IFS - CAMPUS NOSSA SENHORA DA GLORIA","RODOVIA JUSCELINO KIBITSCHECK, S/N PARQUE DE EXPOSICOES. ZONA RURAL. 49680-000 Nossa Senhora da Glória - SE.","(79) 37113295",c(-37.4309183333333, -10.2064666666667),"IF",-37.4309183333333,-10.2064666666667
"86017","SE","28","IFS - CAMPUS ITABAIANA","AVENIDA PADRE AIRTON GONCALVES LIMA, 1140 SAO CRISTOVAO. 49500-543 Itabaiana - SE.","(79) 999733692",c(-37.40586149, -10.69038757),"IF",-37.40586149,-10.69038757
"86118","SE","28","IFS - CAMPUS TOBIAS BARRETO","RODOVIA ANTONIO CARLOS VALADARES, S/N CONJUNTO IRMA DULCE. 49300-000 Tobias Barreto - SE.","(79) 37113285",c(-38.00791416, -11.16667727),"IF",-38.00791416,-11.16667727
"86119","SE","28","IFS - CAMPUS PROPRIA","RUA ROTARY, 330 CENTRO. 49900-000 Propriá - SE.","(79) 37113274",c(-36.83781461, -10.2109005),"IF",-36.83781461,-10.2109005
"86176","SE","28","IFS - CAMPUS SOCORRO","AVENIDA JANIA REIS, 94 MARCOS FREIRE I. TAICOCA. 49160-000 Nossa Senhora do Socorro - SE.","(79) 37113265",c(-37.0731279, -10.8529522),"IF",-37.0731279,-10.8529522
"92898","BA","29","IF BAIANO - CAMPUS CATU","RUA BARAO DE CAMACARI, 118 BARAO DE CAMACARI. 48110-000 Catu - BA.","(71) 36417900",c(-38.3744225464761, -12.3594781151041),"IF",-38.3744225464761,-12.3594781151041
"94415","BA","29","IFBA - CAMPUS SALVADOR","RUA EMIDIO DOS SANTOS, S/N BARBALHO. 40301-015 Salvador - BA.","(71) 21029520",c(-38.50044323, -12.96263953),"IF",-38.50044323,-12.96263953
"97570","BA","29","IF BAIANO - CAMPUS ITAPETINGA","RODOVIA ITAPETINGA ITORORO, S/N KM 02. CLEROLANDIA. 45700-000 Itapetinga - BA.","(77) 32612213",c(-40.2281515678154, -15.2456005588954),"IF",-40.2281515678154,-15.2456005588954
"98116","BA","29","IF BAIANO - CAMPUS VALENCA","RUA GLICERIO TAVARES, SN BATE QUENTE. 45400-000 Valença - BA.","(75) 36415270",c(-39.08355995, -13.37309793),"IF",-39.08355995,-13.37309793
"99263","BA","29","IF BAIANO - CAMPUS URUCUCA","RUA DR. JOAO FIRMINO NASCIMENTO, S/N CENTRO. 45680-000 Uruçuca - BA.","(73) 32392222",c(-39.28360175, -14.59541308),"IF",-39.28360175,-14.59541308
"99780","BA","29","IF BAIANO - CAMPUS TEIXEIRA DE FREITAS","BR 101, KM 882, S/N CAIXA POSTAL 66. ZONA RURAL. 45985-970 Teixeira de Freitas - BA.","(73) 36651032",c(-39.7332629, -17.57477932),"IF",-39.7332629,-17.57477932
"99993","BA","29","IFBA - CAMPUS EUNAPOLIS","AVENIDA DAVID JONAS FADINI, SN JUCA ROSA. 45823-431 Eunápolis - BA.","(73) 32812266",c(-39.57814, -16.34934),"IF",-39.57814,-16.34934
"100211","BA","29","IF BAIANO - CAMPUS GUANAMBI","ZONA RURAL, SN DISTRITO DE CERAIMA. 46430-000 Guanambi - BA.","(77) 34932100",c(-42.69361774, -14.30179941),"IF",-42.69361774,-14.30179941
"100266","BA","29","IFBA - CAMPUS BARREIRAS","RUA GILENO DE SA OLIVEIRA, 271 RECANTO DOS PASSAROS. 47808-006 Barreiras - BA.","(77) 36129650",c(-45.00578, -12.15141),"IF",-45.00578,-12.15141
"100540","BA","29","IFBA - CAMPUS VALENCA TENTO","RUA VEREADOR ROMEU AGRARIO MARTINS, SN ANTIGO CEFET. TENTO. 45400-000 Valença - BA.","(75) 36413051",c(-39.0613633487374, -13.372774142772),"IF",-39.0613633487374,-13.372774142772
"101049","BA","29","IFBA - VITORIA DA CONQUISTA","AV AMAZONAS 3150 ZABELE, 45075-265 Vitória da Conquista - BA.","",c(-40.87707, -14.84175),"IF",-40.87707,-14.84175
"101250","BA","29","IF BAIANO - CAMPUS SANTA INES","KM2,5 DA BR 420 RODOVIA SANTA INES-UBAIRA, S/N ZONA RURAL. 45320-000 Santa Inês - BA.","(73) 35361210",c(-39.80732021, -13.27727893),"IF",-39.80732021,-13.27727893
"102440","BA","29","IF BAIANO - CAMPUS BOM JESUS DA LAPA","BR 349, KM 14, S/N PROJETO FORMOSO. ZONA RURAL. 47600-000 Bom Jesus da Lapa - BA.","(77) 34813210",c(-43.5466919839382, -13.261955617927),"IF",-43.5466919839382,-13.261955617927
"102530","BA","29","IFBA - CAMPUS IRECE","RODOVIA BA 148, KM 04, 1800 VILA ESPERANCA. 44900-000 Irecê - BA.","(74) 36886701",c(-41.8649526312947, -11.3272669399157),"IF",-41.8649526312947,-11.3272669399157
"102536","BA","29","IFBA - CAMPUS JEQUIE","RUA JEAN TORRES DE OLIVEIRA, SN CIDADE NOVA. KENNEDY. 45201-767 Jequié - BA.","(73) 35259667",c(-40.1169730257243, -13.8519050600007),"IF",-40.1169730257243,-13.8519050600007
"102537","BA","29","IFBA - CAMPUS PAULO AFONSO","RUA MARCONDES FERRAZ, 200 INSTITUTO FEDERAL. GENERAL DUTRA. 48607-000 Paulo Afonso - BA.","(75) 32821191",c(-38.21591062, -9.3902954),"IF",-38.21591062,-9.3902954
"102860","BA","29","IF BAIANO - CAMPUS SENHOR DO BONFIM","ESTRADA DA IGARA, S/N ZONA RURAL. 48970-000 Senhor do Bonfim - BA.","(74) 35424000",c(-40.14766342, -10.44574766),"IF",-40.14766342,-10.44574766
"105444","BA","29","IFBA - CAMPUS FEIRA DE SANTANA","AVENIDA DEPUTADO LUIS EDUARDO MAGALHAES, S/Nº ROD. BR 324, KM 102. AVIARIO. 44096-486 Feira de Santana - BA.","(75) 32216475",c(-38.9135716666667, -12.2913116666667),"IF",-38.9135716666667,-12.2913116666667
"105445","BA","29","IFBA - CAMPUS SEABRA","ESTRADA VICINAL PARA TENDA, S/N CAMPUS DO IFBA. VERMELHO. 46900-000 Seabra - BA.","(75) 998111125",c(-41.78698579, -12.39954612),"IF",-41.78698579,-12.39954612
"105519","BA","29","IFBA - CAMPUS JACOBINA","AVENIDA CENTENARIO, 500 NAZARE. 44700-000 Jacobina - BA.","(74) 36218700",c(-40.5366688315203, -11.1822669301286),"IF",-40.5366688315203,-11.1822669301286
"105784","BA","29","IF BAIANO - CAMPUS GOVERNADOR MANGABEIRA","RUA WALDEMAR MASCARENHAS, S/N EST. VELHA DA CHESF. PORTAO. 44350-000 Governador Mangabeira - BA.","(75) 36383500",c(-39.03089089, -12.60824348),"IF",-39.03089089,-12.60824348
"106285","BA","29","IFBA - CAMPUS BRUMADO","RUA FRANCISCO MANUEL DA CRUZ, S/N SAO JOSE. 46100-000 Brumado - BA.","(77) 34411607",c(-41.67304808, -14.18879484),"IF",-41.67304808,-14.18879484
"106523","BA","29","IFBA - CAMPUS JUAZEIRO","RODOVIA BA-210, S/N, SENTIDO SOBRADINHO. NOVA JUAZEIRO. 48918-900 Juazeiro - BA.","(74) 36112717",c(-40.523238, -9.4510651),"IF",-40.523238,-9.4510651
"106680","BA","29","IF BAIANO - CAMPUS SERRINHA","ESTRADA VICINAL DE APARECIDA, S/N APARECIDA. 48700-000 Serrinha - BA.","(75) 983018269",c(-38.983525, -11.6792766666667),"IF",-38.983525,-11.6792766666667
"106764","BA","29","IFBA - CAMPUS AVANCADO UBAITABA","RUA JUCA MAGALHAES, SN CENTRO. 45545-000 Ubaitaba - BA.","(73) 32301772",c(-39.3229633333333, -14.3117016666667),"IF",-39.3229633333333,-14.3117016666667
"106765","BA","29","IFBA - CAMPUS EUCLIDES DA CUNHA","AVENIDA APROMIANO CAMPOS, 900 BR 116 KM 220. URBIS. 48500-000 Euclides da Cunha - BA.","(75) 998107934",c(-38.9982304349542, -10.5370794888586),"IF",-38.9982304349542,-10.5370794888586
"106839","BA","29","IFBA - CAMPUS SANTO ANTONIO DE JESUS","RUA VIRIATO LOBO, S/N IFBA. CAJUEIRO. 44571-020 Santo Antônio de Jesus - BA.","(75) 32210394",c(-39.24789, -12.9785483333333),"IF",-39.24789,-12.9785483333333
"107125","BA","29","IF BAIANO - CAMPUS ALAGOINHAS","RUA MANOEL ROMAO, 166 ALAGOINHAS VELHA. 48030-530 Alagoinhas - BA.","(75) 34226122",c(-38.4028398, -12.14702823),"IF",-38.4028398,-12.14702823
"107126","BA","29","IF BAIANO - CAMPUS ITABERABA","AVENIDA RIO BRANCO, 1003 CENTRO. 46880-000 Itaberaba - BA.","",c(-40.25029526, -12.50466231),"IF",-40.25029526,-12.50466231
"107127","BA","29","IF BAIANO - CAMPUS XIQUE-XIQUE","BA 052, S/N KM 468. 47400-000 Xique-Xique - BA.","(74) 36643500",c(-42.68917, -10.824445),"IF",-42.68917,-10.824445
"107509","BA","29","IFBA - SANTO AMARO","TRAVESSA SAO JOSE, S/N BONFIM. 44200-000 Santo Amaro - BA.","(75) 32410845",c(-38.72153227, -12.54528702),"IF",-38.72153227,-12.54528702
"107567","BA","29","IFBA - CAMPUS PORTO SEGURO","BR 367, KM 57,5, S/N FONTANA I. 45810-000 Porto Seguro - BA.","(73) 32886686",c(-39.09588, -16.43279),"IF",-39.09588,-16.43279
"107754","BA","29","IFBA - CAMPUS SIMOES FILHO","VIA UNIVERSITARIA, S/N PINTAGUINHA. 43700-000 Simões Filho - BA.","(71) 32955603",c(-38.38286173, -12.80772232),"IF",-38.38286173,-12.80772232
"108338","MG","31","IFMG - CAMPUS OURO BRANCO","RUA AFONSO SARDINHA, 90 PIONEIROS. 36420-000 Ouro Branco - MG.","(31) 39381200",c(-43.7130801, -20.5134624),"IF",-43.7130801,-20.5134624
"108383","MG","31","IFMG - CAMPUS BETIM","RUA ITAGUASSU, 595 SAO CAETANO. 32656-840 Betim - MG.","(31) 35976360",c(-44.1176711, -19.9383601),"IF",-44.1176711,-19.9383601
"108402","MG","31","IFMG - CAMPUS RIBEIRAO DAS NEVES","RUA TAIOBEIRAS, 169 SEVILHA 2ª SECAO. 33858-480 Ribeirão das Neves - MG.","(31) 36272303",c(-44.08113, -19.77888),"IF",-44.08113,-19.77888
"108544","MG","31","IF SUDESTE MG - CAMPUS SANTOS DUMONT","RUA TECNICO PANAMA, 45 QUARTO DEPOSITO. 36240-000 Santos Dumont - MG.","(32) 984697150",c(-43.5428255, -21.4690459),"IF",-43.5428255,-21.4690459
"108578","MG","31","IFSULDEMINAS - CAMPUS PASSOS","RUA MARIO RIBOLA, 409 PENHA II. 37903-358 Passos - MG.","(35) 35264856",c(-46.6281949, -20.714303),"IF",-46.6281949,-20.714303
"108680","MG","31","IFSULDEMINAS - CAMPUS POCOS DE CALDAS","AVENIDA DIRCE PEREIRA ROSA, 300 JARDIM ESPERANCA. 37713-100 Poços de Caldas - MG.","(35) 36974950",c(-46.5591447, -21.837015),"IF",-46.5591447,-21.837015
"108734","MG","31","IFSULDEMINAS - CAMPUS POUSO ALEGRE","AVENIDA MARIA DA CONCEICAO SANTOS, 900 PARQUE REAL. 37560-260 Pouso Alegre - MG.","(35) 34276600",c(-45.9214791, -22.29122629),"IF",-45.9214791,-22.29122629
"109038","MG","31","IFTM - CAMPUS UBERLANDIA CENTRO","RUA BLANCHE GALASSI, 150 MORADA DA COLINA. 38411-104 Uberlândia - MG.","(34) 32214802",c(-48.2801004, -18.9330011),"IF",-48.2801004,-18.9330011
"109116","MG","31","IFTM - CAMPUS PATROCINIO","AVENIDA LIRIA TEREZINHA LASSI CAPUANO, 255 UNIVERSITARIO. 38747-792 Patrocínio - MG.","(34) 35152100",c(-46.9828897544598, -18.9557758540447),"IF",-46.9828897544598,-18.9557758540447
"109204","MG","31","IFSULDEMINAS - CAMPUS AVANCADO CARMO DE MINAS","ALAMEDA MURILO EUGENIO RUBIAO, S/N CHACRINHA. 37472-000 Carmo de Minas - MG.","(35) 998097953",c(-45.1369451, -22.1273731),"IF",-45.1369451,-22.1273731
"109373","MG","31","IFSULDEMINAS - CAMPUS AVANCADO TRES CORACOES","RUA CORONEL EDGARD CAVALCANTI DE ALBUQUERQUE, 61 CHACARA DAS ROSAS. 37417-158 Três Corações - MG.","(35) 32399494",c(-45.2603566666667, -21.6928083333333),"IF",-45.2603566666667,-21.6928083333333
"109401","MG","31","IFTM - CAMPUS PATOS DE MINAS","AVENIDA B, 155 NOVO PLANALTO. 38706-328 Patos de Minas - MG.","(34) 38208700",c(-46.4918170776218, -18.6456372728571),"IF",-46.4918170776218,-18.6456372728571
"109419","MG","31","IFMG - CAMPUS AVANCADO PIUMHI","RUA SEVERO VELOSO, 1880 BELA VISTA. 37925-000 Piumhi - MG.","(37) 33713353",c(-45.9568445, -20.4585714),"IF",-45.9568445,-20.4585714
"109420","MG","31","IFMG - CAMPUS AVANCADO PONTE NOVA","PRACA JOSE EMILIANO DIAS, 87 CENTRO. 35430-034 Ponte Nova - MG.","(31) 38812630",c(-42.9131016, -20.41910183),"IF",-42.9131016,-20.41910183
"109438","MG","31","IFMG - CAMPUS AVANCADO CONSELHEIRO LAFAIETE","RUA PADRE TEOFILO REYN, 441 SAO DIMAS. 36407-122 Conselheiro Lafaiete - MG.","(31) 37624908",c(-43.8061477, -20.6703262),"IF",-43.8061477,-20.6703262
"109441","MG","31","IF SUDESTE MG - CAMPUS BARBACENA","RUA MONSENHOR JOSE AUGUSTO, Nº 204 - BAIRRO SAO JOSE, 36205-018 Barbacena - MG.","",c(-43.76808, -21.22753),"IF",-43.76808,-21.22753
"109471","MG","31","IFMG - CAMPUS AVANCADO ITABIRITO","RUA JOSE BENEDITO, 139 SANTA EFIGENIA. 35450-000 Itabirito - MG.","(31) 35611269",c(-43.793119, -20.2552271),"IF",-43.793119,-20.2552271
"109805","MG","31","IFTM - CAMPUS AVANCADO UBERABA PARQUE TECNOLOGICO","AVENIDA DOUTOR FLORESTAN FERNANDES, 131 UNIVERDECIDADE. 38064-190 Uberaba - MG.","(34) 33261400",c(-47.9579774, -19.7187579),"IF",-47.9579774,-19.7187579
"109986","MG","31","IFTM - CAMPUS AVANCADO CAMPINA VERDE","BR 364 KM 139, FAZENDA CAMPO BELO. ZONA RURAL. 38270-000 Campina Verde - MG.","(34) 991814785",c(-49.5199026, -19.5403065),"IF",-49.5199026,-19.5403065
"110218","MG","31","IFNMG - CAMPUS AVANCADO JANAUBA","AVENIDA BRASIL, 334 CENTRO. 39442-010 Janaúba - MG.","(38) 32187380",c(-43.3100307, -15.8014506),"IF",-43.3100307,-15.8014506
"110234","MG","31","IFNMG - CAMPUS TEOFILO OTONI","RUA MOCAMBI, 295 VIRIATO. 39800-430 Teófilo Otoni - MG.","(33) 32187364",c(-41.52694057, -17.84743361),"IF",-41.52694057,-17.84743361
"110247","MG","31","IFNMG - CAMPUS DIAMANTINA","FAZENDA BIRIBIRI, S/N KM 624 RODOVIA 367. ZONA RURAL. 39100-000 Diamantina - MG.","(38) 32187370",c(-43.6024748, -18.2421464),"IF",-43.6024748,-18.2421464
"110582","MG","31","IFNMG - CAMPUS AVANCADO PORTEIRINHA","AVENIDA JOSE SILVEIRA LOPES, 429 VILA SERRANOPOLIS. 39520-000 Porteirinha - MG.","(38) 984088125",c(-43.0218488909304, -15.739829884842),"IF",-43.0218488909304,-15.739829884842
"110606","MG","31","IFMG - CAMPUS BAMBUI","FAZENDA VARGINHA, RODOVIA BAMBUI/MEDEIROS, KM 05 - CAIXA POSTAL 05, S/N RURAL. 38900-000 Bambuí - MG.","(37) 34314900",c(-46.009347, -20.0326946),"IF",-46.009347,-20.0326946
"110673","MG","31","IFNMG - CENTRO DE REFERENCIA CORINTO","RUA RISOLETA, 1041 CLARINDO DE PAIVA. 39200-000 Corinto - MG.","(38) 37512583",c(-44.4629094, -18.3692966),"IF",-44.4629094,-18.3692966
"110851","MG","31","IF SUDESTE MG - CAMPUS MANHUACU","RODOVIA BR116 KM 589,8, 36909-300 Manhuaçu - MG.","(33) 33330100",c(-42.1503613, -20.2459782),"IF",-42.1503613,-20.2459782
"110880","MG","31","IF SUDESTE MG - CAMPUS AVANCADO CATAGUASES","CHACARA DA GRANJARIA, SEM NUMERO GRANJARIA. 36773-563 Cataguases - MG.","(32) 34211013",c(-42.70128984, -21.3834001),"IF",-42.70128984,-21.3834001
"110906","MG","31","IF SUDESTE MG - CAMPUS AVANCADO UBA","AVENIDA OLEGARIO MACIEL, 1427 INDUSTRIAL. 36502-000 Ubá - MG.","(32) 35318433",c(-42.91848043, -21.12408124),"IF",-42.91848043,-21.12408124
"111029","MG","31","IFMG - CAMPUS IBIRITE","RUA RUA MATO GROSSO, 02 VISTA ALEGRE - 1ª SECAO. 32407-190 Ibirité - MG.","(31) 20101081",c(-44.0332066666667, -20.0397033333333),"IF",-44.0332066666667,-20.0397033333333
"111053","MG","31","IFMG - CAMPUS SAO JOAO EVANGELISTA","AVENIDA PRIMEIRO DE JUNHO, 1043 IFMG/SJE. CENTRO. 39705-000 São João Evangelista - MG.","(33) 34122900",c(-42.76124, -18.54924),"IF",-42.76124,-18.54924
"111749","MG","31","IFSULDEMINAS - CAMPUS INCONFIDENTES","PRACA TIRADENTES, 416 IFSULDEMINAS. CENTRO. 37576-000 Inconfidentes - MG.","(35) 34641200",c(-46.32817492, -22.31803851),"IF",-46.32817492,-22.31803851
"112446","MG","31","IF SUDESTE MG - CAMPUS JUIZ DE FORA","RUA BERNARDO MASCARENHAS, 1283 FABRICA. 36080-001 Juiz de Fora - MG.","(32) 40093001",c(-43.37483074, -21.7426535),"IF",-43.37483074,-21.7426535
"117273","MG","31","IFTM - CAMPUS UBERABA","RUA JOAO BATISTA RIBEIRO, 4000 DISTRITO INDUSTRIAL IV. 38064-790 Uberaba - MG.","(34) 33196000",c(-47.969906257338, -19.6656313603264),"IF",-47.969906257338,-19.6656313603264
"117887","MG","31","IFTM - CAMPUS UBERLANDIA","FAZENDA SOBRADINHO S/Nº, S/N ZONA RURAL. 38400-970 Uberlândia - MG.","(34) 32338800",c(-48.288695, -18.7652665),"IF",-48.288695,-18.7652665
"118128","MG","31","IFSULDEMINAS - CAMPUS MACHADO","RODOVIA MACHADO PARAGUACU, KM 03, SANTO ANTONIO. 37750-000 Machado - MG.","(35) 32959700",c(-45.89036504, -21.70109322),"IF",-45.89036504,-21.70109322
"118564","MG","31","IF SUDESTE MG - CAMPUS RIO POMBA","AV. DR. JOSE SEBASTIAO DA PAIXAO S/Nº - BAIRRO LINDO VALE, 36180-000 Rio Pomba - MG.","(32) 35715700",c(-43.15786311, -21.25153279),"IF",-43.15786311,-21.25153279
"121422","MG","31","IFNMG - CAMPUS SALINAS","FAZENDA VARGINHA, KM 02, ROD. MG 404, S/N 39560-000 Salinas - MG.","(38) 38417000",c(-42.3107111, -16.1569065),"IF",-42.3107111,-16.1569065
"122046","MG","31","IFSULDEMINAS - CAMPUS MUZAMBINHO","RODOVIA BR 491, KM 35, CAIXA POSTAL 02. MORRO PRETO. 37890-000 Muzambinho - MG.","(35) 35715051",c(-46.52880197, -21.35028938),"IF",-46.52880197,-21.35028938
"122793","MG","31","IFMG - CAMPUS OURO PRETO","RUA PANDIA CALOGERAS, 898 BAUXITA. 35400-000 Ouro Preto - MG.","(31) 35592112",c(-43.49969, -20.39597),"IF",-43.49969,-20.39597
"129766","MG","31","IFMG - CAMPUS FORMIGA","SAO LUIZ GONZAGA, S/N SAO LUIZ. 35570-000 Formiga - MG.","(37) 33228432",c(-45.4382293, -20.4528737),"IF",-45.4382293,-20.4528737
"129827","MG","31","IFMG - CAMPUS CONGONHAS","AVENIDA MICHAEL PEREIRA DE SOUZA, 3007 CAMPINHO. 36415-000 Congonhas - MG.","(31) 37318100",c(-43.8411476076553, -20.4857267436867),"IF",-43.8411476076553,-20.4857267436867
"129829","MG","31","IFTM - CAMPUS ITUIUTABA","RUA BELARINO VILELA JUNQUEIRA, S/N NOVO TEMPO II. 38305-200 Ituiutaba - MG.","(34) 32714000",c(-49.4775035, -19.018735),"IF",-49.4775035,-19.018735
"129830","MG","31","IFTM - CAMPUS PARACATU","RODOVIA MG 188 - ALIRIO HERVAL - KM 167, S/N CAIXA POSTAL 134. FAZENDINHA. 38600-970 Paracatu - MG.","(38) 33650300",c(-46.8811949553593, -17.2474034094472),"IF",-46.8811949553593,-17.2474034094472
"129833","MG","31","IFNMG - CAMPUS ARINOS","RODOVIA 202 KM 407, S/N ARINOS-BURITIS CP 5. ZONA RURAL. 38680-000 Arinos - MG.","(38) 32187393",c(-46.1361283333333, -15.9217433333333),"IF",-46.1361283333333,-15.9217433333333
"129980","MG","31","IFNMG - CAMPUS ARACUAI","FAZENDA DO MEIO PE DA SERRA BR 367, KM 278, S/N ZONA RURAL. 39600-000 Araçuaí - MG.","",c(-42.0363451, -16.8481893),"IF",-42.0363451,-16.8481893
"130017","MG","31","IFMG - CAMPUS GOVERNADOR VALADARES","AVENIDA MINAS GERAIS, 5189 OURO VERDE. 35057-760 Governador Valadares - MG.","(33) 32725400",c(-41.9757724, -18.8300617),"IF",-41.9757724,-18.8300617
"130036","MG","31","IF SUDESTE MG - CAMPUS MURIAE","AVENIDA CORONEL MONTEIRO DE CASTRO, 550 BARRA. 36884-036 Muriaé - MG.","(32) 36962850",c(-42.37857936, -21.12699906),"IF",-42.37857936,-21.12699906
"130046","MG","31","IF SUDESTE MG - CAMPUS SAO JOAO DEL REI","RUA AMERICO DAVIM FILHO SN BAIRRO VILA SAO PAULO, 36301-358 São João del Rei - MG.","",c(-44.2471156, -21.11177436),"IF",-44.2471156,-21.11177436
"130163","MG","31","IFNMG - CAMPUS PIRAPORA","RUA HUMBERTO MALLARD, 1355 SANTOS DUMONT. 39270-000 Pirapora - MG.","(38) 37496950",c(-44.92612, -17.33784),"IF",-44.92612,-17.33784
"130178","MG","31","IFNMG - CAMPUS MONTES CLAROS","RUA DOIS, 300 VILLAGE DO LAGO I. 39404-058 Montes Claros - MG.","(38) 21034141",c(-43.827678, -16.6866114),"IF",-43.827678,-16.6866114
"130183","MG","31","IFNMG - CAMPUS ALMENARA","RODOVIA BR 367, KM 111 ZONA RURAL. 39900-000 Almenara - MG.","(33) 32013090",c(-40.7439411, -16.2290139),"IF",-40.7439411,-16.2290139
"130676","MG","31","IFMG - CAMPUS SABARA","RODOVIA MGC-262, S/Nº DISTRITO INDUSTRIAL DO SOBRADINHO. 34590-390 Sabará - MG.","(31) 36741178",c(-43.79352, -19.89504),"IF",-43.79352,-19.89504
"130926","MG","31","IFMG - CAMPUS SANTA LUZIA","RUA ERICO VERISSIMO, 317 LONDRINA SAO BENEDITO. 33115-390 Santa Luzia - MG.","(31) 36343910",c(-43.9139826, -19.7940425),"IF",-43.9139826,-19.7940425
"131007","MG","31","IFMG - CAMPUS AVANCADO DE IPATINGA","RUA MARIA SILVA, 125 VENEZA. 35164-261 Ipatinga - MG.","(31) 38298615",c(-42.5269934814423, -19.4717128062621),"IF",-42.5269934814423,-19.4717128062621
"132873","ES","32","IFES - CAMPUS COLATINA","AVENIDA ARINO GOMES LEAL, 1700 SANTA MARGARIDA. 29700-558 Colatina - ES.","(27) 37231500",c(-40.6142659, -19.5202735),"IF",-40.6142659,-19.5202735
"132922","ES","32","IFES - CAMPUS ITAPINA","BR 259 KM 70, S/N CAIXA POSTAL 256. ZONA RURAL. 29717-000 Colatina - ES.","(27) 37231226",c(-40.76086, -19.4978),"IF",-40.76086,-19.4978
"133815","ES","32","IFES - CAMPUS SANTA TERESA","RODOVIA ES 080 - KM 93, SAO JOAO DE PETROPOLIS. 29660-000 Santa Teresa - ES.","(27) 32597878",c(-40.6762791, -19.8055438),"IF",-40.6762791,-19.8055438
"134294","ES","32","IFES - CAMPUS VITORIA","AVENIDA VITORIA, 1729 JUCUTUQUARA. 29040-780 Vitória - ES.","(27) 33312100",c(-40.31901745, -20.31103233),"IF",-40.31901745,-20.31103233
"134550","ES","32","IFES - CAMPUS DE ALEGRE","RODOVIA BR 482 CACHOEIRO / ALEGRE KM 47, RIVE. 29520-000 Alegre - ES.","(28) 35641800",c(-41.45106219, -20.75600752),"IF",-41.45106219,-20.75600752
"135713","ES","32","IFES - CAMPUS SERRA","RODOVIA ES-010, SNº MANGUINHOS. 29173-087 Serra - ES.","(27) 33489200",c(-40.217578, -20.1977741),"IF",-40.217578,-20.1977741
"135861","ES","32","IFES - CAMPUS PIUMA","RUA AUGUSTO COSTA DE OLIVEIRA, 660 PRAIA DOCE. 29285-000 Piúma - ES.","(28) 35200606",c(-40.7242729, -20.8401097),"IF",-40.7242729,-20.8401097
"135862","ES","32","IFES - CAMPUS VILA VELHA","AVENIDA MINISTRO SALGADO FILHO, 1000 SOTECO. 29106-010 Vila Velha - ES.","(27) 31490730",c(-40.30898, -20.34841),"IF",-40.30898,-20.34841
"135863","ES","32","IFES - CAMPUS IBATIBA","AVENIDA 7 DE NOVEMBRO, 40 IFES. CENTRO. 29395-000 Ibatiba - ES.","(28) 35435500",c(-41.508, -20.23624),"IF",-41.508,-20.23624
"135949","ES","32","IFES - CAMPUS CACHOEIRO DE ITAPEMIRIM","ROD. ES 482, CACHOEIRO X ALEGRE, KM 6,5., S/N CAIXA POSTAL 727. MORRO GRANDE. 29311-970 Cachoeiro de Itapemirim - ES.","(28) 35269000",c(-41.155117206, -20.8032603616805),"IF",-41.155117206,-20.8032603616805
"135951","ES","32","IFES - CAMPUS SAO MATEUS","RODOVIA GOVERNADOR MARIO COVAS, KM 58. LITORANEO. 29932-540 São Mateus - ES.","(27) 37677000",c(-39.8608688358589, -18.6779976636344),"IF",-39.8608688358589,-18.6779976636344
"136064","ES","32","IFES - CAMPUS CARIACICA","RODOVIA GOVERNADOR JOSE HENRIQUE SETTE, 184 ITACIBA. 29150-410 Cariacica - ES.","(27) 32461600",c(-40.3716152, -20.3240363),"IF",-40.3716152,-20.3240363
"136077","ES","32","IFES - CAMPUS MONTANHA","RODOVIA ES-130, SEM NUMERO MONTANHA-VINHATICO. PALHINHA. 29890-000 Montanha - ES.","(27) 37542731",c(-40.3517183333333, -18.128975),"IF",-40.3517183333333,-18.128975
"136111","ES","32","IFES - CAMPUS BARRA DE SAO FRANCISCO","AV. HERCULANO FERNANDES DE JESUS, 111 IRMAOS FERNANDES. 29800-000 Barra de São Francisco - ES.","(27) 37568850",c(-40.8904215, -18.7540281),"IF",-40.8904215,-18.7540281
"136112","ES","32","IFES - CAMPUS CENTRO SERRANO","ESTRADA GUILHERME JOAO FREDERICO KRUGER, S/N ZONA RURAL. CARAMURU. 29645-000 Santa Maria de Jetibá - ES.","(27) 22343001",c(-40.7235542, -20.1425476),"IF",-40.7235542,-20.1425476
"136154","ES","32","IFES - CAMPUS AVANCADO VIANA","RODOVIA BR-262, S/N KM 12. UNIVERSAL. 29134-400 Viana - ES.","(27) 32461700",c(-40.443947, -20.3638802),"IF",-40.443947,-20.3638802
"136164","ES","32","IFES - CEFOR","RUA BARAO DE MAUA, 30 JUCUTUQUARA. 29040-860 Vitória - ES.","(27) 31980900",c(-40.32027483, -20.30831681),"IF",-40.32027483,-20.30831681
"136339","ES","32","IFES - CAMPUS NOVA VENECIA","RODOVIA MEGUEL CURRY CARNEIRO, 799 SANTA LUZIA. 29830-000 Nova Venécia - ES.","(27) 37524331",c(-40.3774471, -18.7136373),"IF",-40.3774471,-18.7136373
"136348","ES","32","IFES - CAMPUS ARACRUZ","AVENIDA MOROBA, 248 PROX. A PREFEITURA. MOROBA. 29192-733 Aracruz - ES.","(27) 32707800",c(-40.2630099, -19.8240491),"IF",-40.2630099,-19.8240491
"136355","ES","32","IFES - CAMPUS LINHARES","AVENIDA FILOGONIO PEIXOTO, 2220 AVISO. 29901-291 Linhares - ES.","(27) 32645700",c(-40.0441325, -19.4078852),"IF",-40.0441325,-19.4078852
"136391","ES","32","IFES - CAMPUS VENDA NOVA DO IMIGRANTE","AV. ELIZABETH MINETE PERIM, 500 SAO RAFAEL. 29375-000 Venda Nova do Imigrante - ES.","(28) 35468600",c(-41.127481, -20.3260303),"IF",-41.127481,-20.3260303
"136423","ES","32","IFES - CAMPUS GUARAPARI","ALAMEDA ALAMEDA FRANCISCO VIEIRA SIMOES, 720 CAMPUS GUARAPARI. AEROPORTO. 29216-795 Guarapari - ES.","(27) 32619900",c(-40.4957723, -20.6470932),"IF",-40.4957723,-20.6470932
"136432","RJ","33","IFF - CAMPUS BOM JESUS DO ITABAPOANA","AVENIDA DARIO VIEIRA BORGES, 235 PARQUE DO TREVO. LIA MARCIA. 28360-000 Bom Jesus do Itabapoana - RJ.","(22) 38339850",c(-41.6599119, -21.13615848),"IF",-41.6599119,-21.13615848
"137026","RJ","33","IFF - CAMPUS CAMPOS CENTRO","RUA DOUTOR SIQUEIRA, 273 PARQUE DOM BOSCO. PARQUE TAMANDARE. 28030-130 Campos dos Goytacazes - RJ.","(22) 27262800",c(-41.33707, -21.7612),"IF",-41.33707,-21.7612
"138432","RJ","33","IFRJ - CAMPUS PINHEIRAL","RUA JOSE BREVES, 550 CENTRO. 27197-000 Pinheiral - RJ.","(24) 33568200",c(-43.99070134, -22.5209859),"IF",-43.99070134,-22.5209859
"140836","RJ","33","IFRJ - CAMPUS RIO DE JANEIRO","RUA SENADOR FURTADO, 121 125. MARACANA. 20270-021 Rio de Janeiro - RJ.","(21) 25667714",c(-43.22043, -22.91029),"IF",-43.22043,-22.91029
"143774","RJ","33","IFF - CAMPUS MACAE","RODOVIA AMARAL PEIXOTO, KM 164 IMBOASSICA. 27932-050 Macaé - RJ.","(22) 33991500",c(-41.84422752, -22.4059307),"IF",-41.84422752,-22.4059307
"144905","RJ","33","IFRJ - CAMPUS NILOPOLIS","RUA CORONEL DELIO MENEZES PORTO, 1045 CENTRO. 26530-060 Nilópolis - RJ.","(21) 32361805",c(-43.4191433333333, -22.8013016666667),"IF",-43.4191433333333,-22.8013016666667
"146560","RJ","33","IFRJ - CAMPUS ARRAIAL DO CABO","RUA JOSE PINTO DE MACEDO, PRAINHA. 28930-000 Arraial do Cabo - RJ.","(22) 26229207",c(-42.02692722, -22.96448456),"IF",-42.02692722,-22.96448456
"147238","RJ","33","IFF - CAMPUS QUISSAMA","AVENIDA AMILCAR PEREIRA DA SILVA, 727 PITEIRAS. 28735-000 Quissamã - RJ.","(22) 27689200",c(-41.47908326, -22.11081841),"IF",-41.47908326,-22.11081841
"147723","RJ","33","IFF - CAMPUS AVANCADO SAO JOAO DA BARRA","RODOVIA BR 356 KM 181, S/N PERIGOSO. 28200-000 São João da Barra - RJ.","(22) 27375690",c(-41.05206824, -21.65486752),"IF",-41.05206824,-21.65486752
"147724","RJ","33","IFF - CAMPUS AVANCADO MARICA","ESTRADA VEREADOR OLDEMAR FIGUEIREDO, KM 12,5 KM 12,5. UBATIBA. 24908-845 Maricá - RJ.","(21) 988414392",c(-42.790445, -22.87453),"IF",-42.790445,-22.87453
"147725","RJ","33","IFF - CAMPUS AVANCADO CAMBUCI","ESTRADA CAMBUCI TRES IRMAOS KM 5, S/N FAZENDA. ZONA RURAL. 28430-000 Cambuci - RJ.","(22) 27375607",c(-41.9586196146028, -21.5878849781651),"IF",-41.9586196146028,-21.5878849781651
"147726","RJ","33","IFF - CAMPUS SANTO ANTONIO DE PADUA","RUA JOAO JASBICK, S/N PROXIMO AO FORUM. AEROPORTO. 28470-000 Santo Antônio de Pádua - RJ.","(22) 38539650",c(-42.19509811, -21.53088268),"IF",-42.19509811,-21.53088268
"148028","RJ","33","IFRJ - CAMPUS AVANCADO RESENDE","AV PREFEITO BOTAFOGO, CAMPOS ELISIOS. 27542-000 Resende - RJ.","(24) 33834906",c(-44.44405205, -22.46714516),"IF",-44.44405205,-22.46714516
"148410","RJ","33","IFF - CENTRO DE REFERENCIA EM TECNOLOGIA INFORMACAO E COMUNICACAO NA EDUCACAO","RUA CORONEL WALTER KRAMER, 357 PARQUE SANTO ANTONIO. 28080-565 Campos dos Goytacazes - RJ.","(22) 27375600",c(-41.3238263502717, -21.7372903134674),"IF",-41.3238263502717,-21.7372903134674
"148580","RJ","33","IFRJ - CAMPUS SAO JOAO DE MERITI","RUA VALA DA DIVISA, COELHO DA ROCHA. 25550-110 São João de Meriti - RJ.","(21) 32936077",c(-43.39517948, -22.77725583),"IF",-43.39517948,-22.77725583
"148581","RJ","33","IFRJ - CAMPUS NITEROI","ESTRADA WASHINGTON LUIS, 1596 PENDOTIBA. 24315-375 Niterói - RJ.","(21) 32936089",c(-43.0540077388287, -22.8930991049856),"IF",-43.0540077388287,-22.8930991049856
"148985","RJ","33","IFRJ - CAMPUS PARACAMBI","RUA SEBASTIAO LACERDA, CENTRO. 26600-000 Paracambi - RJ.","(21) 26839702",c(-43.70593727, -22.59946099),"IF",-43.70593727,-22.59946099
"149150","RJ","33","IFF - CAMPUS CAMPOS GUARUS","AVENIDA SOUZA MOTA, 350 PARQUE FUNDAO. 28060-010 Campos dos Goytacazes - RJ.","(22) 27372404",c(-41.3239414, -21.73488372),"IF",-41.3239414,-21.73488372
"149349","RJ","33","IFF - CAMPUS ITAPERUNA","BR 356, KM 3,5, CIDADE NOVA. 28300-000 Itaperuna - RJ.","(22) 38262300",c(-41.9292217153752, -21.1870907904091),"IF",-41.9292217153752,-21.1870907904091
"149350","RJ","33","IFRJ - CAMPUS DUQUE DE CAXIAS","AV REPUBLICA DO PARAGUAI, 120 SARAPUI. 25050-100 Duque de Caxias - RJ.","(21) 27846109",c(-43.29895, -22.74945),"IF",-43.29895,-22.74945
"149397","RJ","33","IFF - CAMPUS CABO FRIO","ESTRADA CABO FRIO - BUZIOS, SN ALTURA DO KM 07. BAIA FORMOSA. 28909-971 Cabo Frio - RJ.","(22) 26459500",c(-41.98106744, -22.8147832),"IF",-41.98106744,-22.8147832
"149408","RJ","33","IFRJ - CAMPUS SAO GONCALO","RUA OLIVEIRA BOTELHO, NEVES. 24425-005 São Gonçalo - RJ.","(21) 26249023",c(-43.09990476, -22.85255799),"IF",-43.09990476,-22.85255799
"149421","RJ","33","IFRJ - CAMPUS VOLTA REDONDA","RUA ANTONIO BARREIROS, 212 NOSSA SENHORA DAS GRACAS. 27215-350 Volta Redonda - RJ.","(24) 33569101",c(-44.09644, -22.50683),"IF",-44.09644,-22.50683
"150668","SP","35","IFSP - CAMPUS JACAREI","RUA ANTONIO FOGACA DE ALMEIDA, 200 JARDIM AMERICA. 12322-030 Jacareí - SP.","(12) 21285200",c(-45.98349593, -23.31752166),"IF",-45.98349593,-23.31752166
"151758","SP","35","IFSP - CAMPUS SOROCABA","RUA MARIA CINTO DE BIAGGI, 130 PISO SUPERIOR. JARDIM SANTA ROSALIA. 18095-410 Sorocaba - SP.","(15) 33210010",c(-47.44442, -23.48862),"IF",-47.44442,-23.48862
"152626","SP","35","IFSP - CAMPUS AVANCADO JUNDIAI","AVENIDA DOUTOR CAVALCANTI, 396 VILA ARENS. CENTRO. 13201-003 Jundiaí - SP.","(11) 24488507",c(-46.87797, -23.19334),"IF",-46.87797,-23.19334
"152769","SP","35","IFSP - CAMPUS AVANCADO ILHA SOLTEIRA","ALAMEDA TUCURUI, 164 ZONA NORTE. 15385-000 Ilha Solteira - SP.","(18) 37488300",c(-51.332938750093, -20.4210527387728),"IF",-51.332938750093,-20.4210527387728
"152787","SP","35","IFSP - CAMPUS ITAQUAQUECETUBA","RUA PRIMEIRO DE MAIO, 500 ESTACAO. 08571-050 Itaquaquecetuba - SP.","(11) 986141607",c(-46.34327828, -23.48563827),"IF",-46.34327828,-23.48563827
"152804","SP","35","IFSP - CAMPUS SAO PAULO PIRITUBA","AVENIDA MUTINGA, 951 JARDIM SANTO ELIAS. 05110-000 São Paulo - SP.","(11) 25040100",c(-46.73558045, -23.48786291),"IF",-46.73558045,-23.48786291
"152820","SP","35","IFSP - CAMPUS AVANCADO TUPA","RUA OTHON GUEDES JUNIOR, 175 JARDIM IPIRANGA. 17607-220 Tupã - SP.","(14) 34043551",c(-50.5226468, -21.9233668),"IF",-50.5226468,-21.9233668
"152911","SP","35","IFSP - CAMPUS AVANCADO SAO PAULO - SAO MIGUEL PAULISTA","RUA TENENTE MIGUEL DELIA, 105 VILA ROSARIA. 08021-090 São Paulo - SP.","(11) 20325416",c(-46.4390516666667, -23.498585),"IF",-46.4390516666667,-23.498585
"171723","SP","35","IFSP - CAMPUS GUARULHOS","AVENIDA SALGADO FILHO, 3501 VILA RIO DE JANEIRO. 07115-000 Guarulhos - SP.","(11) 23044250",c(-46.53692, -23.43962),"IF",-46.53692,-23.43962
"171726","SP","35","IFSP - CAMPUS SALTO","RUA RIO BRANCO, 1780 CENTRO. 13320-270 Salto - SP.","(11) 46029191",c(-47.3016216, -23.1967959),"IF",-47.3016216,-23.1967959
"171727","SP","35","IFSP - CAMPUS CARAGUATATUBA","AVENIDA BAHIA, 1739 INDAIA. 11665-071 Caraguatatuba - SP.","(12) 38852130",c(-45.42588, -23.63682),"IF",-45.42588,-23.63682
"171728","SP","35","IFSP - CAMPUS SAO JOAO DA BOA VISTA","AVENIDA AVENIDA MARGINAL, 585 FAZENDA NOSSA SENHORA APARECIDA DO JAGUARI. 13871-298 São João da Boa Vista - SP.","(19) 36341104",c(-46.81257, -21.96625),"IF",-46.81257,-21.96625
"173431","SP","35","IFSP - CAMPUS CAMPOS DO JORDAO","RUA MONSENHOR JOSE VITA, 280 ABERNESSIA. 12460-000 Campos do Jordão - SP.","(12) 36689620",c(-45.5926649, -22.7428344),"IF",-45.5926649,-22.7428344
"173441","SP","35","IFSP - CAMPUS SAO ROQUE","RODOVIA PREFEITO QUINTINO DE LIMA, 2100 JARDIM CONCEICAO. 18136-540 São Roque - SP.","(11) 47199500",c(-47.1497036, -23.5548413),"IF",-47.1497036,-23.5548413
"175125","SP","35","IFSP - CAMPUS VOTUPORANGA","RUA JERONIMO FIGUEIRA DA COSTA, 3014 POZZOBON. 15503-110 Votuporanga - SP.","(17) 34266990",c(-49.96743, -20.4025),"IF",-49.96743,-20.4025
"175126","SP","35","IFSP - CAMPUS AVARE","AVENIDA PROFESSOR CELSO FEROREIRA DA SILVA, 1333 JARDIM EUROPA I. 18707-150 Avaré - SP.","(14) 37310300",c(-48.9266919, -23.0791668),"IF",-48.9266919,-23.0791668
"175128","SP","35","IFSP - CAMPUS ITAPETININGA","AVENIDA JOAO OLIMPIO DE OLIVEIRA, 1561 VILA ASEM. 18202-000 Itapetininga - SP.","(15) 33769930",c(-48.01912, -23.59448),"IF",-48.01912,-23.59448
"175129","SP","35","IFSP - CAMPUS PRESIDENTE EPITACIO","RUA JOSE RAMOS JUNIOR, 27-50 JD TROPICAL. 19470-000 Presidente Epitácio - SP.","(18) 32819599",c(-52.1116, -21.78519),"IF",-52.1116,-21.78519
"175130","SP","35","IFSP - CAMPUS BIRIGUI","RUA PEDRO CAVALO, 709 RESIDENCIAL PORTAL DA PEROLA II. 16201-407 Birigui - SP.","(18) 36431160",c(-50.3145204074964, -21.2489028824417),"IF",-50.3145204074964,-21.2489028824417
"175131","SP","35","IFSP - CAMPUS HORTOLANDIA","AVENIDA THEREZA ANA CECON BREDA, SN VILA SAO PEDRO. 13183-250 Hortolândia - SP.","(19) 38658070",c(-47.23137873, -22.85096628),"IF",-47.23137873,-22.85096628
"175132","SP","35","IFSP - CAMPUS SAO CARLOS","ESTRADA MUNICIPAL PAULO EDUARDO DE ALMEIDA PRADO, S/N JARDIM GUANABARA. 13565-905 São Carlos - SP.","(16) 35091585",c(-47.8785664, -21.9698647),"IF",-47.8785664,-21.9698647
"175133","SP","35","IFSP - CAMPUS BARRETOS","AVENIDA C-1, 250 RESIDENCIAL IDE DAHER. 14781-502 Barretos - SP.","(17) 33120700",c(-48.5490658, -20.540384),"IF",-48.5490658,-20.540384
"175134","SP","35","IFSP - CAMPUS ARARAQUARA","R. DR ALDO BENEDITO PIERRI, 250 JD PAULO FREIRE. 14801-600 Araraquara - SP.","(16) 33032330",c(-48.21092862, -21.78395075),"IF",-48.21092862,-21.78395075
"175135","SP","35","IFSP - CAMPUS PIRACICABA","RUA DIACONO JAIR DE OLIVEIRA, 1005 LOTEAMENTO SANTA ROSA. 13414-155 Piracicaba - SP.","(19) 34122700",c(-47.6253036037531, -22.6934403693515),"IF",-47.6253036037531,-22.6934403693515
"175136","SP","35","IFSP - CAMPUS SUZANO","AVENIDA MOGI DAS CRUZES, 1501 PARQUE SUZANO. 08673-010 Suzano - SP.","(11) 21461800",c(-46.32738655, -23.53494893),"IF",-46.32738655,-23.53494893
"175137","SP","35","IFSP - CAMPUS CAPIVARI","AV. DR. ENIO PIRES DE CAMARGO, 2971 SAO JOAO BATISTA. 13360-000 Capivari - SP.","(19) 21466700",c(-47.4734973400951, -22.9767327303872),"IF",-47.4734973400951,-22.9767327303872
"175138","SP","35","IFSP - CAMPUS BOITUVA","AV. ZELIA DE LIMA ROSA, 100 PORTAL DOS PASSAROS. 18550-000 Boituva - SP.","(15) 33638610",c(-47.65211, -23.28845),"IF",-47.65211,-23.28845
"175162","SP","35","IFSP - CAMPUS CATANDUVA","RUA PASTOR JOSE DUTRA DE MORAES, 239 DISTRITO INDUSTRIAL ANTONIO ZACARO. 15808-305 Catanduva - SP.","(17) 35249710",c(-48.94653165, -21.14711671),"IF",-48.94653165,-21.14711671
"176721","SP","35","IFSP - CAMPUS SAO JOSE DOS CAMPOS","RODOVIA PRESIDENTE DUTRA, S/N PORTARIA P4. JARDIM DIAMANTE. 12223-201 São José dos Campos - SP.","(12) 39014440",c(-45.8505551145641, -23.1913093051729),"IF",-45.8505551145641,-23.1913093051729
"176722","SP","35","IFSP - CAMPUS REGISTRO","AV CLARA GIANOTTI DE SOUZA, 5180 AGROCHA. 11900-000 Registro - SP.","(13) 38282020",c(-47.8694066666667, -24.532945),"IF",-47.8694066666667,-24.532945
"177014","SP","35","IFSP - CAMPUS CAMPINAS","RODOVIA DOM PEDRO I KM 143,6, S/N TERMINAL INTERMODAL DE CARGAS TIC. 13069-901 Campinas - SP.","(19) 37466128",c(-47.14924226515, -22.9486843664199),"IF",-47.14924226515,-22.9486843664199
"179482","SP","35","IFSP - CAMPUS MATAO","R STEFANO DAVASSI, 625 NOVA CIDADE. 15991-502 Matão - SP.","(16) 35060700",c(-48.3484564908299, -21.6242725867979),"IF",-48.3484564908299,-21.6242725867979
"182269","SP","35","IFSP - CAMPUS CUBATAO","RUA MARIA CRISTINA, 50 JARDIM CASQUEIRO. 11533-160 Cubatão - SP.","(13) 40095100",c(-46.41144, -23.92807),"IF",-46.41144,-23.92807
"182314","SP","35","IFSP - CAMPUS SERTAOZINHO","RUA AMERICO AMBROSIO, 269 JARDIM CANAA. 14169-263 Sertãozinho - SP.","(16) 39461170",c(-47.9725269, -21.1432155),"IF",-47.9725269,-21.1432155
"182633","SP","35","IFSP - CAMPUS SAO PAULO","RUA PEDRO VICENTE, 625 PARI. 01109-010 São Paulo - SP.","(11) 27632664",c(-46.62168736, -23.5238769),"IF",-46.62168736,-23.5238769
"187332","PR","41","IFPR - CAMPUS CURITIBA","RUA JOAO NEGRAO, 1285 REBOUCAS. 80230-150 Curitiba - PR.","(41) 35351651",c(-49.26145, -25.44049),"IF",-49.26145,-25.44049
"188097","PR","41","IFPR - CAMPUS UMUARAMA","RODOVIA PR-323, SEM NUMERO PARQUE INDUSTRIAL. 87507-014 Umuarama - PR.","(44) 33616200",c(-53.32172, -23.80635),"IF",-53.32172,-23.80635
"188098","PR","41","IFPR - CAMPUS JACAREZINHO","AVENIDA DOUTOR TITO, 801 JARDIM PANORAMA. 86400-000 Jacarezinho - PR.","(43) 21220101",c(-49.9723925627768, -23.1405256362632),"IF",-49.9723925627768,-23.1405256362632
"188101","PR","41","IFPR - CAMPUS ASSIS CHATEAUBRIAND","AVENIDA CIVICA, 475 CENTRO CIVICO. 85935-000 Assis Chateaubriand - PR.","(44) 35286885",c(-53.50767187, -24.40311799),"IF",-53.50767187,-24.40311799
"188109","PR","41","IFPR - CAMPUS TELEMACO BORBA","RODOVIA PR-160, KM 19,5 PARQUE LIMEIRA AREA VII. 84269-090 Telêmaco Borba - PR.","(42) 32213000",c(-50.65724, -24.33752),"IF",-50.65724,-24.33752
"188113","PR","41","IFPR - CAMPUS IVAIPORA","RODOVIA PR 466 GLEBA PINDAUVA, S/N SECCAO C - PARTE II. GLEBA PINDAUVA. 86870-000 Ivaiporã - PR.","(43) 31269400",c(-51.7144387, -24.2525062),"IF",-51.7144387,-24.2525062
"188120","PR","41","IFPR - CAMPUS PARANAVAI","AVENIDA JOSE FELIPE TEQUINHA, 1400 JARDIM DAS NACOES. 87703-536 Paranavaí - PR.","(44) 34820100",c(-52.45421862, -23.05463462),"IF",-52.45421862,-23.05463462
"188206","PR","41","IFPR - CAMPUS PALMAS","RODOVIA PRT 280/TREVO CODAPAR, 85555-000 Palmas - PR.","(46) 32626434",c(-51.98525294, -26.5117888),"IF",-51.98525294,-26.5117888
"188387","PR","41","IFPR - CAMPUS CASCAVEL","AVENIDA DAS POMBAS, 2020 FLORESTA. 85814-800 Cascavel - PR.","(45) 33052100",c(-53.4170425, -24.9168343),"IF",-53.4170425,-24.9168343
"188884","PR","41","IFPR - CAMPUS CAPANEMA","RUA CARIRIS, 750 LOTE 52 GLEBA 135. SANTA BARBARA. 85760-000 Capanema - PR.","(46) 35523314",c(-53.78667322, -25.68366158),"IF",-53.78667322,-25.68366158
"188886","PR","41","IFPR CAMPUS COLOMBO","RUA ANTONIO CHEMIN, 28 0. SAO GABRIEL. 83403-515 Colombo - PR.","(41) 35351835",c(-49.21811677, -25.32748971),"IF",-49.21811677,-25.32748971
"188888","PR","41","IFPR - CAMPUS UNIAO DA VITORIA","AVENIDA PAULA FREITAS, 2800 SAO BRAZ. 84603-264 União da Vitória - PR.","(42) 31354800",c(-51.0491118067304, -26.2281009027265),"IF",-51.0491118067304,-26.2281009027265
"188889","PR","41","IFPR - CAMPUS AVANCADO GOIOERE","RODOVIA PR 180, TREVO DA UEM. JARDIM UNIVERSITARIO. 87360-000 Goioerê - PR.","(44) 35225432",c(-53.0471966666667, -24.183135),"IF",-53.0471966666667,-24.183135
"188890","PR","41","IFPR - CAMPUS PITANGA","RUA JOSE DE ALENCAR, 1080 PLANALTO. 85200-000 Pitanga - PR.","(42) 36464737",c(-51.75594808, -24.74315836),"IF",-51.75594808,-24.74315836
"188891","PR","41","IFPR - CAMPUS AVANCADO QUEDAS DO IGUACU","RUA MARGINAL IMBIRAMA, 300 LINHA TAPUI. 85460-000 Quedas do Iguaçu - PR.","(46) 984145176",c(-52.90110501, -25.43303735),"IF",-52.90110501,-25.43303735
"188900","PR","41","IFPR CAMPUS PINHAIS","RUA HUMBERTO DE ALENCAR CASTELLO BRANCO, 1575 0. VILA AMELIA. 83330-200 Pinhais - PR.","(41) 33754970",c(-49.163025, -25.4241033333333),"IF",-49.163025,-25.4241033333333
"188901","PR","41","IFPR - CAMPUS JAGUARIAIVA","AV ELOA MARTINS PASSOS FELIX ESQ COM PR 151 KM 213,7, PONTE VELHA. 84200-000 Jaguariaíva - PR.","(43) 35357415",c(-49.71927036, -24.26349718),"IF",-49.71927036,-24.26349718
"189060","PR","41","IFPR - CAMPUS AVANCADO ASTORGA","RODOVIA PR 454, CONTORNO NORTE. RODOVIA. 86730-000 Astorga - PR.","(44) 31348701",c(-51.6634943336248, -23.2242651237175),"IF",-51.6634943336248,-23.2242651237175
"192469","PR","41","IFPR - CAMPUS LONDRINA","RUA JOAO XXIII, 600 JUDITH. 86060-370 Londrina - PR.","(43) 38786100",c(-51.17632463, -23.30866619),"IF",-51.17632463,-23.30866619
"192479","PR","41","IFPR - CAMPUS FOZ DO IGUACU","AVENIDA ARAUCARIA, 780 VILA RESIDENCIAL A. 85860-000 Foz do Iguaçu - PR.","(45) 34225323",c(-54.57682, -25.50421),"IF",-54.57682,-25.50421
"192483","PR","41","IFPR - CAMPUS PARANAGUA","RUA ANTONIO CARLOS RODRIGUES, 453 PORTO SEGURO. 83215-750 Paranaguá - PR.","(41) 37218300",c(-48.56532426, -25.58592937),"IF",-48.56532426,-25.58592937
"192639","SC","42","IFSC - CAMPUS FLORIANOPOLIS-CENTRO","AVENIDA MAURO RAMOS, 950 CENTRO. 88020-300 Florianópolis - SC.","(48) 32116000",c(-48.5428133793627, -27.5939087430272),"IF",-48.5428133793627,-27.5939087430272
"193109","SC","42","IFSC - CAMPUS SAO MIGUEL DO OESTE","RUA 22 DE ABRIL, 2440 SAO LUIZ. 89900-000 São Miguel do Oeste - SC.","(49) 36310400",c(-53.52624353, -26.74232803),"IF",-53.52624353,-26.74232803
"193129","SC","42","IFC - CAMPUS IBIRAMA","DR. GETULIO VARGAS, 3006 BELA VISTA. 89140-000 Ibirama - SC.","(47) 33576200",c(-49.53865, -27.04907),"IF",-49.53865,-27.04907
"193203","SC","42","IFSC - CAMPUS CRICIUMA","RODOVIA SC-443, 845 VILA RICA. 88813-600 Criciúma - SC.","(48) 34625000",c(-49.33195, -28.6788),"IF",-49.33195,-28.6788
"193614","SC","42","IFC - CAMPUS SAO FRANCISCO DO SUL","RODOVIA DUQUE DE CAXIAS, 6750 KM 6. IPEROBA. 89240-000 São Francisco do Sul - SC.","(47) 32334000",c(-48.5702874, -26.2177982),"IF",-48.5702874,-26.2177982
"193663","SC","42","IFC - CAMPUS ARAQUARI","RODOVIA BR 280 KM 27, 5200 COLEGIO AGRICOLA. 89245-000 Araquari - SC.","(47) 38037200",c(-48.73851, -26.39469),"IF",-48.73851,-26.39469
"194340","SC","42","IFC - CAMPUS LUZERNA","RUA VIGARIO FREI JOAO, 550 CENTRO. 89609-000 Luzerna - SC.","(49) 35234300",c(-51.4638447, -27.1335212),"IF",-51.4638447,-27.1335212
"194355","SC","42","IFC - CAMPUS CONCORDIA","RODOVIA SC-283, FRAGOSOS. 89703-720 Concórdia - SC.","(49) 34414800",c(-52.08314534, -27.20421706),"IF",-52.08314534,-27.20421706
"194745","SC","42","IFSC - CAMPUS PALHOCA","RUA JOAO BERNADINO DA ROSA, S/Nº CIDADE UNIVERSITARIA PEDRA BRANCA. 88137-010 Palhoça - SC.","(48) 33419700",c(-48.6889, -27.63008),"IF",-48.6889,-27.63008
"194749","SC","42","IFSC - CAMPUS CACADOR","AVENIDA FAHDO THOME, 3000 CHAMPAGNAT. 89503-550 Caçador - SC.","(49) 35615700",c(-51.03936848, -26.77955288),"IF",-51.03936848,-26.77955288
"194927","SC","42","IFC - CAMPUS CAMBORIU","RUA JOAQUIM GARCIA, S/N CAMPUS CAMBORIU. CENTRO. 88340-055 Camboriú - SC.","(47) 21040863",c(-48.6588982120156, -27.0160336839035),"IF",-48.6588982120156,-27.0160336839035
"195032","SC","42","IFSC - CAMPUS LAGES","RUA HEITOR VILLA LOBOS, 222 SAO FRANCISCO. 88506-400 Lages - SC.","(49) 32214200",c(-50.3377868807266, -27.8050837434342),"IF",-50.3377868807266,-27.8050837434342
"195033","SC","42","IFSC - CAMPUS ITAJAI","AVENIDA VEREADOR ABRAHAO JOAO FRANCISCO, 3899 CONTORNO SUL. RESSACADA. 88307-303 Itajaí - SC.","(47) 33901200",c(-48.6851225886947, -26.9309223303822),"IF",-48.6851225886947,-26.9309223303822
"195034","SC","42","IFSC - CAMPUS CANOINHAS","AVENIDA DOS EXPEDICIONARIOS, 2150 CAMPO DA AGUA VERDE. 89466-312 Canoinhas - SC.","(47) 36274500",c(-50.3683683333333, -26.1842833333333),"IF",-50.3683683333333,-26.1842833333333
"195213","SC","42","IFSC - CAMPUS GASPAR","RUA RUA ADRIANO KORMANN, 510 BELA VISTA. 89111-009 Gaspar - SC.","(47) 33183700",c(-49.00416, -26.9007),"IF",-49.00416,-26.9007
"195216","SC","42","IFSC - CAMPUS XANXERE","RUA EUCLIDES HACK, 1603 VENEZA. 89820-000 Xanxerê - SC.","(49) 34417900",c(-52.41869, -26.8768),"IF",-52.41869,-26.8768
"195280","SC","42","IFSC - CAMPUS URUPEMA","RUA DO CONHECIMENTO, SN SENADINHO. 88625-000 Urupema - SC.","(49) 32363100",c(-49.87229569, -27.95797147),"IF",-49.87229569,-27.95797147
"195296","SC","42","IFSC - CAMPUS JARAGUA DO SUL-RAU","RUA DOS IMIGRANTES, 445 RAU. 89254-430 Jaraguá do Sul - SC.","(47) 32769600",c(-49.11345679, -26.46823617),"IF",-49.11345679,-26.46823617
"195376","SC","42","IFC - CAMPUS FRAIBURGO","CRUZ E SOUZA, 100 CENTRO. 89580-000 Fraiburgo - SC.","(49) 32028800",c(-50.9181761, -27.0300006),"IF",-50.9181761,-27.0300006
"195889","SC","42","IFC - CAMPUS BLUMENAU","RUA BERNARDINO JOSE DE OLIVEIRA, 81 BADENFURT. 89070-270 Blumenau - SC.","(47) 37021700",c(-49.137144712777, -26.8819063017395),"IF",-49.137144712777,-26.8819063017395
"196118","SC","42","IFSC - CAMPUS SAO JOSE","RUA JOSE LINO KRETZER, 608 PRAIA COMPRIDA. 88103-310 São José - SC.","(48) 33812800",c(-48.63353649, -27.60867576),"IF",-48.63353649,-27.60867576
"196559","SC","42","IFSC - CAMPUS GAROPABA","RUA MARIA APARECIDA BARBOSA, 153 CAMPO DUNA. 88495-000 Garopaba - SC.","(48) 32547372",c(-48.6749541666812, -28.0987524474301),"IF",-48.6749541666812,-28.0987524474301
"197379","SC","42","IFC - CAMPUS SANTA ROSA DO SUL","RUA DAS ROSAS, S/N VILA NOVA. 88965-000 Santa Rosa do Sul - SC.","(48) 35348021",c(-49.8142248, -29.0957641),"IF",-49.8142248,-29.0957641
"197380","SC","42","IFC - CAMPUS RIO DO SUL","ESTRADA DO REDENTOR, 5665 CANTA GALO. 89163-356 Rio do Sul - SC.","(47) 35313700",c(-49.660694, -27.1842582),"IF",-49.660694,-27.1842582
"197447","SC","42","IFSC - CAMPUS JARAGUA DO SUL-CENTRO","AVENIDA GETULIO VARGAS, 830 PREDIO. CENTRO. 89251-000 Jaraguá do Sul - SC.","(47) 32768700",c(-49.08971, -26.47794),"IF",-49.08971,-26.47794
"198766","SC","42","IFSC - CAMPUS CHAPECO","AVENIDA NEREU RAMOS - D, 3450 SEMINARIO. 89813-000 Chapecó - SC.","(49) 33131252",c(-52.59889, -27.13746),"IF",-52.59889,-27.13746
"198767","SC","42","IFSC - CAMPUS JOINVILLE","RUA PAVAO, 1377 COSTA E SILVA. 89220-618 Joinville - SC.","(47) 34315600",c(-48.88008063, -26.2782054),"IF",-48.88008063,-26.2782054
"198821","SC","42","IFC - CAMPUS BRUSQUE","AVENIDA HUGO SCHLOSSER, 605 JARDIM MALUCHE. 88354-300 Brusque - SC.","(47) 32120000",c(-48.9282191, -27.0994225),"IF",-48.9282191,-27.0994225
"198822","SC","42","IFSC - CAMPUS TUBARAO","RUA DEPUTADO OLICES PEDRO DE CALDAS, 480 DEHON. 88704-296 Tubarão - SC.","(48) 33019000",c(-49.02570484, -28.47446632),"IF",-49.02570484,-28.47446632
"198902","SC","42","IFC - CAMPUS AVANCADO SOMBRIO","AV PREFEITO FRANCISCO LUMMERTZ JUNIOR, 930 IFC. JANUARIA. 88960-000 Sombrio - SC.","(48) 35334001",c(-49.6389374, -29.1020048),"IF",-49.6389374,-29.1020048
"198948","SC","42","IFSC - CAMPUS SAO CARLOS","RUA ALOISIO STOFFEL, 1271 JARDIM ALVORADA. 89885-000 São Carlos - SC.","(49) 33254149",c(-53.01345875, -27.09210361),"IF",-53.01345875,-27.09210361
"198984","SC","42","IFC - CAMPUS AVANCADO ABELARDO LUZ","ESTRADA GERAL - ASSENTAMENTO JOSE MARIA, SN ASSENT. JOSE MARIA. 89830-000 Abelardo Luz - SC.","(49) 33317880",c(-52.1047688, -26.5866985),"IF",-52.1047688,-26.5866985
"198994","SC","42","IFC - CAMPUS SAO BENTO DO SUL","RUA PAULO CHAPIEWSKY, 931 CENTENARIO. 89283-064 São Bento do Sul - SC.","(47) 31881700",c(-49.34973748, -26.24969501),"IF",-49.34973748,-26.24969501
"199078","SC","42","IFSC - CAMPUS AVANCADO SAO LOURENCO DO OESTE","RODOVIA SC-480, S/N SEDE. 89990-000 São Lourenço do Oeste - SC.","(49) 33448495",c(-52.7848320324755, -26.4042910684411),"IF",-52.7848320324755,-26.4042910684411
"199386","SC","42","IFSC - CAMPUS FLORIANOPOLIS-CONTINENTE","RUA QUATORZE DE JULHO, 150 COQUEIROS. 88075-010 Florianópolis - SC.","(48) 38778421",c(-48.57181653, -27.59981808),"IF",-48.57181653,-27.59981808
"199614","SC","42","IFSC - CAMPUS ARARANGUA","AVENIDA XV DE NOVEMBRO, 61 AEROPORTO. 88905-112 Araranguá - SC.","(48) 33115000",c(-49.4933050469184, -28.9478148402964),"IF",-49.4933050469184,-28.9478148402964
"199775","SC","42","IFC - CAMPUS VIDEIRA","RODOVIA SC-135, KM 125 CAMPO EXPERIMENTAL. 89564-590 Videira - SC.","(49) 35334900",c(-51.1449898, -27.0268813),"IF",-51.1449898,-27.0268813
"199850","RS","43","IFSUL - CAMPUS BAGE","LEONEL DE MOURA BRIZOLA, 2501 PEDRAS BRANCAS. 96418-400 Bagé - RS.","(53) 32473237",c(-54.07276, -31.33214),"IF",-54.07276,-31.33214
"199851","RS","43","IFRS - CAMPUS OSORIO","AVENIDA SANTOS DUMONT, 2127 ALBATROZ. 95520-000 Osório - RS.","(51) 36013500",c(-50.25685027, -29.90390243),"IF",-50.25685027,-29.90390243
"199852","RS","43","IFSUL - CAMPUS SANTANA DO LIVRAMENTO","RUA PAUL HARRIS, 410 FORTIM. 97574-360 Sant'Ana do Livramento - RS.","(55) 32429051",c(-55.53289, -30.90094),"IF",-55.53289,-30.90094
"199853","RS","43","IFRS - CAMPUS CAXIAS DO SUL","RUA AVELINO ANTONIO DE SOUZA, 1730 NOSSA SENHORA DE FATIMA. 95043-700 Caxias do Sul - RS.","(54) 32042100",c(-51.17128, -29.13938),"IF",-51.17128,-29.13938
"199868","RS","43","IF FARROUPILHA - CAMPUS PANAMBI","RUA ERECHIM, 860 PLANALTO. 98280-000 Panambi - RS.","(55) 33768800",c(-53.51542, -28.28085),"IF",-53.51542,-28.28085
"199930","RS","43","IFRS - CAMPUS PORTO ALEGRE RESTINGA","RUA ALBERTO HOFFMANN, 285 DISTRITO INDUSTRIAL. RESTINGA. 91791-508 Porto Alegre - RS.","(51) 32478400",c(-51.13074911, -30.14187932),"IF",-51.13074911,-30.14187932
"199957","RS","43","IFRS - CAMPUS CANOAS","RUA DOUTORA MARIA ZELIA CARNEIRO DE FIGUEIREDO, 870 IGARA. 92412-240 Canoas - RS.","(51) 34158200",c(-51.15058, -29.89973),"IF",-51.15058,-29.89973
"200003","RS","43","IFRS - CAMPUS FARROUPILHA","AVENIDA SAO VICENTE, 785 CINQUENTENARIO. 95174-274 Farroupilha - RS.","(54) 32602400",c(-51.34873, -29.20214),"IF",-51.34873,-29.20214
"200430","RS","43","IF FARROUPILHA - CAMPUS JAGUARI","BR 287, KM 360 ESTRADA DO CHAPADAO, S/N INTERIOR. 1º DISTRITO. 97760-000 Jaguari - RS.","(55) 32550200",c(-54.7289576567709, -29.4585156580433),"IF",-54.7289576567709,-29.4585156580433
"200558","RS","43","IFSUL - CAMPUS SAPIRANGA","AVENIDA CARLOS GILBERTO WEIS, 155 QUATRO COLONIAS. 93804-870 Sapiranga - RS.","(51) 35997600",c(-51.03206, -29.6486738),"IF",-51.03206,-29.6486738
"200629","RS","43","IF FARROUPILHA - CAMPUS SANTO ANGELO","RODOVIA RS-218, S/N KM 5. INDUBRAS. 98806-700 Santo Ângelo - RS.","(55) 39313900",c(-54.2249046172947, -28.2667342526838),"IF",-54.2249046172947,-28.2667342526838
"200691","RS","43","IFSUL - CAMPUS GRAVATAI","RUA MEN DE SA, 800 BOM SUCESSO. 94135-300 Gravataí - RS.","(51) 991168007",c(-50.9588, -29.9501),"IF",-50.9588,-29.9501
"200695","RS","43","IFSUL - CAMPUS AVANCADO JAGUARAO","AVENIDA CORREDOR DAS TROPAS, 801 96300-000 Jaguarão - RS.","(53) 99923481",c(-53.35690753, -32.55844321),"IF",-53.35690753,-32.55844321
"200700","RS","43","IFSUL - CAMPUS LAJEADO","RUA RUA JOAO GOULART, 2150 IFSUL. OLARIAS. 95910-016 Lajeado - RS.","(51) 37107900",c(-51.986955, -29.4369616666667),"IF",-51.986955,-29.4369616666667
"200740","RS","43","IF FARROUPILHA - CAMPUS ALEGRETE","RS 377 KM 27, ZONA RURAL. 97541-970 Alegrete - RS.","(55) 34219600",c(-55.52649168, -29.70826002),"IF",-55.52649168,-29.70826002
"201201","RS","43","IFRS - CAMPUS BENTO GONCALVES","AVENIDA OSVALDO ARANHA, 540 JUVENTUDE DA ENOLOGIA. 95700-206 Bento Gonçalves - RS.","(54) 34553200",c(-51.52198, -29.16372),"IF",-51.52198,-29.16372
"202368","RS","43","IFRS - CAMPUS ALVORADA","RUA PROFESSOR DARCY RIBEIRO, 121 CAMPOS VERDES. 94834-413 Alvorada - RS.","(51) 34839101",c(-51.05165979, -30.00020023),"IF",-51.05165979,-30.00020023
"202387","RS","43","IFRS - CAMPUS VIAMAO","AV. SENADOR SALGADO FILHO, 7000 SAO LUCAS. 94410-970 Viamão - RS.","(51) 33207100",c(-51.05780201, -30.08563249),"IF",-51.05780201,-30.08563249
"202411","RS","43","IF FARROUPILHA - CAMPUS AVANCADO URUGUAIANA","RUA MONTEIRO LOBATO, 4442 CABO LUIS QUEVEDO. 97503-748 Uruguaiana - RS.","(55) 34135381",c(-57.10752828978, -29.781613885425),"IF",-57.10752828978,-29.781613885425
"202430","RS","43","IF FARROUPILHA - CAMPUS FREDERICO WESTPHALEN","LINHA SETE DE SETEMBRO, S/N INTERIOR. 98400-000 Frederico Westphalen - RS.","(55) 37448920",c(-53.4303674, -27.3906338),"IF",-53.4303674,-27.3906338
"202449","RS","43","IFSUL - CAMPUS AVANCADO NOVO HAMBURGO","RUA PINHEIRO MACHADO, 205 INDUSTRIAL. 93320-490 Novo Hamburgo - RS.","(51) 991379601",c(-51.1306896060705, -29.7174966009334),"IF",-51.1306896060705,-29.7174966009334
"203687","RS","43","IFRS - CAMPUS ROLANTE","RS 239 KM 68, 3505 CAMPINAS 1. 95690-000 Rolante - RS.","(51) 35479606",c(-50.61720449, -29.65532385),"IF",-50.61720449,-29.65532385
"203688","RS","43","IFRS - CAMPUS VERANOPOLIS","BR 470 KM 165, 6500 SAPOPEMA. 95330-000 Veranópolis - RS.","(54) 34372305",c(-51.5501661, -28.90209767),"IF",-51.5501661,-28.90209767
"204509","RS","43","IFSUL - CAMPUS PELOTAS VISCONDE DA GRACA","AVENIDA ENGENHEIRO ILDEFONSO SIMOES LOPES, 2791 TRES VENDAS. 96060-290 Pelotas - RS.","(53) 33095550",c(-52.31251, -31.71402),"IF",-52.31251,-31.71402
"204561","RS","43","IFSUL - CAMPUS PELOTAS","PRACA VINTE DE SETEMBRO, 455 CENTRO. 96015-360 Pelotas - RS.","(53) 21231000",c(-52.35218, -31.76612),"IF",-52.35218,-31.76612
"204776","RS","43","IFRS - CAMPUS PORTO ALEGRE","RUA CEL VICENTE, 281 CENTRO HISTORICO. 90030-040 Porto Alegre - RS.","(51) 39306010",c(-51.2215, -30.02567),"IF",-51.2215,-30.02567
"205312","RS","43","IFRS - CAMPUS RIO GRANDE","RUA ENGENHEIRO ALFREDO HUCH, 475 VILA SANTA TEREZA. 96201-460 Rio Grande - RS.","(53) 32338681",c(-52.0880372263491, -32.0405025919899),"IF",-52.0880372263491,-32.0405025919899
"206565","RS","43","IFSUL - CENTRO DE REFERENCIA PELOTAS","RUA GONCALVES CHAVES, 3218 CENTRO. 96015-560 Pelotas - RS.","(53) 30266050",c(-52.33337696, -31.7577856),"IF",-52.33337696,-31.7577856
"206633","RS","43","IF FARROUPILHA - CAMPUS SAO VICENTE DO SUL","RUA 20 DE SETEMBRO, 2616 CASA. CENTRO. 97420-000 São Vicente do Sul - RS.","(55) 32574100",c(-54.69624688, -29.70221709),"IF",-54.69624688,-29.70221709
"206784","RS","43","IFRS - CAMPUS SERTAO","RS 135 KM 25, 99170-000 Sertão - RS.","(54) 33458003",c(-52.2752858, -28.04543426),"IF",-52.2752858,-28.04543426
"210839","RS","43","IFSUL - CAMPUS SAPUCAIA DO SUL","AVENIDA COPACABANA, 100 COHAB. 93216-120 Sapucaia do Sul - RS.","(51) 34529200",c(-51.1558924, -29.8153695),"IF",-51.1558924,-29.8153695
"210851","RS","43","IFSUL - CAMPUS CHARQUEADAS","RUA GENERAL BALBAO, 81 CENTRO. 96745-000 Charqueadas - RS.","(51) 36583775",c(-51.62466, -29.96418),"IF",-51.62466,-29.96418
"211002","RS","43","IF FARROUPILHA - CAMPUS JULIO DE CASTILHOS","LOCALIDADE DE SAO JOAO DO BARRO PRETO, S/Nº CAIXA POSTAL 38. INTERIOR. 98130-000 Júlio de Castilhos - RS.","(55) 32719500",c(-53.71299, -29.18326),"IF",-53.71299,-29.18326
"211003","RS","43","IF FARROUPILHA - CAMPUS SANTO AUGUSTO","RUA FABIO JOAO ANDOLHE, 1100 FLORESTA. 98590-000 Santo Augusto - RS.","(55) 37813555",c(-53.79059, -27.85286),"IF",-53.79059,-27.85286
"211066","RS","43","IFSUL - CAMPUS PASSO FUNDO","ESTRADA PERIMETRAL LESTE, 150 SAO CRISTOVAO. 99064-440 Passo Fundo - RS.","(54) 33112916",c(-52.35749617, -28.24081074),"IF",-52.35749617,-28.24081074
"211078","RS","43","IFRS - CAMPUS IBIRUBA","RUA NELSI RIBAS FRITSCH, 1111 ESPERANCA. 98200-000 Ibirubá - RS.","(54) 33248100",c(-53.10378, -28.64968),"IF",-53.10378,-28.64968
"211079","RS","43","IFRS - CAMPUS VACARIA","AREA RURAL, 3061 AREA RURAL DE VACARIA. 95219-899 Vacaria - RS.","(54) 32317400",c(-50.9536175, -28.4552806),"IF",-50.9536175,-28.4552806
"211266","RS","43","IFRS - CAMPUS FELIZ","RUA PRINCESA ISABEL, 60 VILA RICA. 95770-000 Feliz - RS.","(51) 36374404",c(-51.29301, -29.45554),"IF",-51.29301,-29.45554
"211279","RS","43","IF FARROUPILHA - CAMPUS SANTA ROSA","AVENIDA CORONEL BRAULIO DE OLIVEIRA, 1400 CENTRAL. 98787-740 Santa Rosa - RS.","(55) 35112575",c(-54.4546666666667, -27.8488083333333),"IF",-54.4546666666667,-27.8488083333333
"211382","RS","43","IFRS - CAMPUS ERECHIM","RUA DOMINGOS ZANELLA, 104 TRES VENDAS. 99713-028 Erechim - RS.","(54) 33217500",c(-52.29212, -27.63908),"IF",-52.29212,-27.63908
"211427","RS","43","IF FARROUPILHA - CAMPUS SAO BORJA","OTAVIANO CASTILHO MENDES, 355 BETIM. 97670-000 São Borja - RS.","(55) 34310500",c(-55.9947343356907, -28.6670140502974),"IF",-55.9947343356907,-28.6670140502974
"211542","RS","43","IFSUL - CAMPUS VENANCIO AIRES","AVENIDA DAS INDUSTRIAS, 1865 UNIVERSITARIO. 95800-000 Venâncio Aires - RS.","(51) 37934200",c(-52.17008, -29.63633),"IF",-52.17008,-29.63633
"211543","RS","43","IFSUL - CAMPUS CAMAQUA","RUA ANA GONCALVES DA SILVA, 901 CAMPUS. OLARIA. 96180-000 Camaquã - RS.","(51) 36717350",c(-51.80085894, -30.86545385),"IF",-51.80085894,-30.86545385
"213133","MS","50","IFMS - CAMPUS DOURADOS","RUA FILINTO MULLER, 1790 JARDIM CANAA 1. 79833-520 Dourados - MS.","(67) 34108500",c(-54.80987, -22.22333),"IF",-54.80987,-22.22333
"213140","MS","50","IFMS - CAMPUS JARDIM","BR 060, S/N SAIDA P/ BELA VISTA. 79240-000 Jardim - MS.","(67) 32090201",c(-56.1617727577686, -21.4977929368615),"IF",-56.1617727577686,-21.4977929368615
"213143","MS","50","IFMS - CAMPUS NAVIRAI","HILDA, 203 BOA VISTA. 79950-000 Naviraí - MS.","(67) 34092501",c(-54.212185, -23.0693916666667),"IF",-54.212185,-23.0693916666667
"213371","MS","50","IFMS - CAMPUS NOVA ANDRADINA","ZONA RURAL, S/N KM 23. 79750-000 Nova Andradina - MS.","(67) 34419600",c(-53.4549915231764, -22.0799894956872),"IF",-53.4549915231764,-22.0799894956872
"213386","MS","50","IFMS - CAMPUS AQUIDAUANA","RUA JOSE TADAO ARIMA, 222 VILA YCARAI. 79200-000 Aquidauana - MS.","(67) 32401600",c(-55.7727562, -20.4813237),"IF",-55.7727562,-20.4813237
"213387","MS","50","IFMS - CAMPUS CAMPO GRANDE","RUA TAQUARI, SANTO ANTONIO. 79100-510 Campo Grande - MS.","(67) 33578501",c(-54.61656, -20.45797),"IF",-54.61656,-20.45797
"213388","MS","50","IFMS - CAMPUS CORUMBA","RUA PEDRO DE MEDEIROS, S/N POPULAR VELHA. 79310-110 Corumbá - MS.","(67) 32349100",c(-57.6408054, -19.0125164),"IF",-57.6408054,-19.0125164
"213389","MS","50","IFMS - CAMPUS COXIM","RUA SALIME TANURE, S/N, S/N SANTA TEREZA. 79400-000 Coxim - MS.","(67) 32919600",c(-54.7531868052247, -18.4853193350308),"IF",-54.7531868052247,-18.4853193350308
"213390","MS","50","IFMS - CAMPUS PONTA PORA","BR 463, KM 14 SANGA PUITA. 79909-000 Ponta Porã - MS.","(67) 34379600",c(-55.6094327, -22.6198944),"IF",-55.6094327,-22.6198944
"213391","MS","50","IFMS - CAMPUS TRES LAGOAS","RUA ANGELO MELAO, 790 JARDIM DAS PAINEIRAS. 79641-162 Três Lagoas - MS.","(67) 99789169",c(-51.7056362, -20.7630718),"IF",-51.7056362,-20.7630718
"214330","MT","51","IFMT - CAMPUS CUIABA - CORONEL OCTAYDE JORGE DA SILVA","RUA PROF ZULMIRA CANAVARROS, 95 ATRAS DO CEMITERIO. CENTRO. 78005-200 Cuiabá - MT.","(65) 33181403",c(-56.09907, -15.59308),"IF",-56.09907,-15.59308
"214583","MT","51","IFMT - CAMPUS CACERES","AVENIDA DOS RAMIRES, S/N DISTRITO INDUSTRIAL. 78200-000 Cáceres - MT.","(65) 32212600",c(-57.6961, -16.13149),"IF",-57.6961,-16.13149
"215310","MT","51","IFMT - CAMPUS RONDONOPOLIS","RUA ANANIAS MARTINS DE SOUZA, 861 RESIDENCIAL VILA MINEIRA. 78721-520 Rondonópolis - MT.","(66) 34272300",c(-54.6278848126531, -16.421894012019),"IF",-54.6278848126531,-16.421894012019
"215311","MT","51","IFMT - CAMPUS BARRA DO GARCAS","ENTRADA DE ACESSO A BR 158 - RADIAL JOSE MAURICIO ZAMPA, S/N JARDIM INDUSTRIAL. 78600-000 Barra do Garças - MT.","(66) 34020100",c(-52.3010937217623, -15.8739462867379),"IF",-52.3010937217623,-15.8739462867379
"215360","MT","51","IFMT - CAMPUS SORRISO","AV. DOS UNIVERSITARIOS, 799 SANTA CLARA. 78890-000 Sorriso - MT.","(66) 35453700",c(-55.74048321, -12.57814591),"IF",-55.74048321,-12.57814591
"215473","MT","51","IFMT - CAMPUS PRIMAVERA DO LESTE","AVENIDA DOM AQUINO, 1500 PARQUE ELDORADO. 78850-000 Primavera do Leste - MT.","(66) 35002900",c(-54.2813387, -15.5538005),"IF",-54.2813387,-15.5538005
"215521","MT","51","IFMT - CAMPUS AVANCADO TANGARA DA SERRA","RUA 28, 980 SETOR N. VILA HORIZONTE. 78300-000 Tangará da Serra - MT.","(65) 33118500",c(-57.48862, -14.60901),"IF",-57.48862,-14.60901
"215528","MT","51","IFMT - CAMPUS ALTA FLORESTA","RODOVIA MT-208, KM138 LOTE 143-A. HAMOA. 78580-000 Alta Floresta - MT.","(66) 35127000",c(-56.0646113287657, -9.90831575822085),"IF",-56.0646113287657,-9.90831575822085
"215530","MT","51","IFMT - CAMPUS VARZEA GRANDE","AVENIDA TIRADENTES, 1300 LOT. JARDIM MANAIRA. PETROPOLIS. 78144-424 Várzea Grande - MT.","(65) 36918000",c(-56.1770316666667, -15.6037483333333),"IF",-56.1770316666667,-15.6037483333333
"215546","MT","51","IFMT - CAMPUS AVANCADO DIAMANTINO","AVENIDA SENADOR ROBERTO CAMPOS KM 02, NOVO DIAMANTINO. 78402-000 Diamantino - MT.","(65) 998071834",c(-56.4002646, -14.3871168),"IF",-56.4002646,-14.3871168
"215602","MT","51","IFMT - CAMPUS AVANCADO GUARANTA DO NORTE","LINHA PASCOA, 471 LOTE 471 - ZONA RURA. SETOR 2. 78520-000 Guarantã do Norte - MT.","(66) 996078422",c(-54.8689644, -9.96245751),"IF",-54.8689644,-9.96245751
"215603","MT","51","IFMT - CAMPUS AVANCADO LUCAS DO RIO VERDE","AVENIDA UNIVERSITARIA, 1600 W. PARQUE DAS EMAS II. 78455-000 Lucas do Rio Verde - MT.","(65) 35484400",c(-55.9477915, -13.06830785),"IF",-55.9477915,-13.06830785
"215604","MT","51","IFMT - CAMPUS AVANCADO SINOP","RUA DAS AVENCAS, 2377 SETOR COMERCIAL. 78550-178 Sinop - MT.","(66) 35112500",c(-55.50622726, -11.848028),"IF",-55.50622726,-11.848028
"216405","MT","51","IFMT - CAMPUS CAMPO NOVO DO PARECIS","RODOVIA MT 235 KM 12, S/N CAIXA POSTAL Nº 100. ZONA RURAL. 78360-000 Campo Novo do Parecis - MT.","(65) 33826231",c(-57.78675, -13.67836),"IF",-57.78675,-13.67836
"216407","MT","51","IFMT - CAMPUS PONTES E LACERDA","MT 473, PARQUE MORADA DA SERRA. 78250-000 Pontes e Lacerda - MT.","(65) 32668217",c(-59.35068736, -15.22824792),"IF",-59.35068736,-15.22824792
"216408","MT","51","IFMT - CAMPUS CUIABA - BELA VISTA","AVENIDA JULIANO COSTA MARQUES, S/N BELA VISTA. 78050-560 Cuiabá - MT.","(65) 33185100",c(-56.0622436, -15.579316),"IF",-56.0622436,-15.579316
"216459","MT","51","IFMT - CAMPUS JUINA","LINHA J, QUADRA 08 - SETOR CHACARA, S/N SETOR CHACARA. 78320-000 Juína - MT.","(66) 35667300",c(-58.72299042, -11.44848109),"IF",-58.72299042,-11.44848109
"216468","MT","51","IFMT - CAMPUS CONFRESA","AVENIDA VILMAR FERNANDES, 300 CAIXA POSTAL 96. SANTA LUZIA. 78652-000 Confresa - MT.","(66) 35642600",c(-51.55788205, -10.661201),"IF",-51.55788205,-10.661201
"217715","GO","52","IFG - CAMPUS GOIANIA","RUA 75, 46 SETOR CENTRAL. 74055-110 Goiânia - GO.","(62) 32272767",c(-49.2550836864049, -16.6660206423835),"IF",-49.2550836864049,-16.6660206423835
"218411","GO","52","IFG - CAMPUS JATAI","RUA MARIA VIEIRA CUNHA, 775 RESIDENCIAL FLAMBOYANT. 75804-714 Jataí - GO.","(64) 36050800",c(-51.7346892972027, -17.8719266317951),"IF",-51.7346892972027,-17.8719266317951
"218464","GO","52","IF GOIANO - CAMPUS RIO VERDE","RODOVIA SUL GOIANA, KM 01. ZONA RURAL. 75901-970 Rio Verde - GO.","(64) 36205600",c(-50.90612, -17.80297),"IF",-50.90612,-17.80297
"218810","GO","52","IF GOIANO - CAMPUS URUTAI","RODOVIA GERALDO SILVA NASCIMENTO, 00 KM 2,5. ZONA RURAL. 75790-000 Urutaí - GO.","(64) 34651900",c(-48.21257838, -17.48569513),"IF",-48.21257838,-17.48569513
"219062","GO","52","IF GOIANO - CAMPUS CERES","RODOVIA GO-154, KM 03, CAIXA POSTAL 51, S/N ZONA RURAL. 76300-000 Ceres - GO.","(62) 33077100",c(-49.5961304, -15.3515555),"IF",-49.5961304,-15.3515555
"219110","GO","52","IF GOIANO - CAMPUS MORRINHOS","ROD BR 153, KM 633, CP 92. ZONA RURAL. 75650-000 Morrinhos - GO.","(64) 34137900",c(-49.20396, -17.81307),"IF",-49.20396,-17.81307
"220483","GO","52","IFG - CAMPUS FORMOSA","RUA 64, S/N ESQ. C/ RUA11. SETOR EXPANSAO PARQUE LAGO. 73813-816 Formosa - GO.","(61) 36429450",c(-47.3276935214083, -15.5624678246316),"IF",-47.3276935214083,-15.5624678246316
"220490","GO","52","IFG - CAMPUS ANAPOLIS","AVENIDA PEDRO LUDOVICO, S/N -. RESIDENCIAL RENY CURY. 75131-457 Anápolis - GO.","(62) 37033350",c(-48.98111515, -16.37308581),"IF",-48.98111515,-16.37308581
"220518","GO","52","IF GOIANO - CAMPUS IPORA","AV. OESTE, 350 SAIDA PIRANHAS. PARQUE UNIAO. 76200-000 Iporá - GO.","(64) 36740400",c(-51.12917, -16.43166),"IF",-51.12917,-16.43166
"220523","GO","52","IFG - CAMPUS LUZIANIA","RUA SAO BARTOLOMEU, VILA ESPERANCA. 72811-580 Luziânia - GO.","(61) 32514100",c(-47.962, -16.24384),"IF",-47.962,-16.24384
"220586","GO","52","IFG - CAMPUS CIDADE DE GOIAS","RUA 2, S/N QD. 10, LT. 1 A 15. RESIDENCIAL BAUMAN. 76600-000 Goiás - GO.","(62) 33719000",c(-50.13964, -15.93584),"IF",-50.13964,-15.93584
"220587","GO","52","IFG - CAMPUS APARECIDA DE GOIANIA","AV. UNIVERSITARIA VEREADOR VAGNER DA SILVA FERREIRA, S/N QUADRA 01, LOTE 01 A. PARQUE ITATIAIA. 74968-755 Aparecida de Goiânia - GO.","(62) 35075950",c(-49.2714877613348, -16.816986459323),"IF",-49.2714877613348,-16.816986459323
"220907","GO","52","IF GOIANO - CAMPUS CAMPOS BELOS","RODOVIA GO-118 QD. 1-A LT. 1, SN SETOR NOVO HORIZONTE. 73840-000 Campos Belos - GO.","(62) 34513386",c(-46.75285583, -13.05176779),"IF",-46.75285583,-13.05176779
"220908","GO","52","IF GOIANO - CAMPUS AVANCADO CATALAO","AVENIDA 20 DE AGOSTO, 410 SETOR CENTRAL. 75701-010 Catalão - GO.","(64) 34417400",c(-47.9529815353453, -18.1722328718752),"IF",-47.9529815353453,-18.1722328718752
"220909","GO","52","IF GOIANO - CAMPUS AVANCADO CRISTALINA","RUA ARAGUAIA, SN LOTEAMENTO 71. SETOR OESTE. 73850-000 Cristalina - GO.","(61) 36128500",c(-47.61842, -16.77139),"IF",-47.61842,-16.77139
"220910","GO","52","IF GOIANO - CAMPUS AVANCADO HIDROLANDIA","ESTRADA SAO BRAS KM 04, SN ZONA RURAL. 75340-000 Hidrolândia - GO.","(62) 991123659",c(-49.20010491, -17.01561097),"IF",-49.20010491,-17.01561097
"220911","GO","52","IF GOIANO - CAMPUS AVANCADO IPAMERI","AVENIDA VEREADOR JOSE BENEVENUTO FILHO, SN QUADRA 11. SETOR UNIVERSITARIO. 75780-000 Ipameri - GO.","(64) 34918401",c(-48.1322259, -17.7088357),"IF",-48.1322259,-17.7088357
"220912","GO","52","IF GOIANO - CAMPUS POSSE","RUA CORRENTINA, 824 SETOR DOM PRUDENCIO. 73900-000 Posse - GO.","(62) 34813613",c(-46.32763907, -14.10839633),"IF",-46.32763907,-14.10839633
"220913","GO","52","IF GOIANO - CAMPUS TRINDADE","AVENIDA WILTON MONTEIRO DA ROCHA, SETOR CRISTINA II EXPANSAO. 75389-269 Trindade - GO.","(62) 35068000",c(-49.48505445, -16.67715232),"IF",-49.48505445,-16.67715232
"221253","GO","52","IFG - CAMPUS INHUMAS","AV. UNIVERSITARIA, 0 QD UNICA. VALE DAS GOIABEIRAS. 75400-000 Inhumas - GO.","(62) 35149501",c(-49.49915, -16.37184),"IF",-49.49915,-16.37184
"221379","GO","52","IFG - CAMPUS URUACU","RUA FORMOSA, QUADRA 28 E 29. LOTEAMENTO SANTANA. 76400-000 Uruaçu - GO.","(62) 33578150",c(-49.1436554398388, -14.5094767212868),"IF",-49.1436554398388,-14.5094767212868
"221417","GO","52","IFG - CAMPUS ITUMBIARA","AVENIDA FURNAS, 55 VILA DE FURNAS. 75524-245 Itumbiara - GO.","(64) 21035600",c(-49.2131718, -18.4352872),"IF",-49.2131718,-18.4352872
"221920","DF","53","IFB - CAMPUS PLANALTINA","GRANDE USUARIO RODOVIA DF-128 KM 21, SN AREA RURAL. SETOR RESIDENCIAL MESTRE DARMAS PLANALTINA. 73380-900 Brasília - DF.","(61) 21962625",c(-47.6946430014653, -15.6565665508927),"IF",-47.6946430014653,-15.6565665508927
"222570","DF","53","IFB - CAMPUS BRASILIA","QUADRA SGAN 610, MODULO D,E,F,G. ASA NORTE. 70830-450 Brasília - DF.","(61) 21938050",c(-47.878495, -15.7532722),"IF",-47.878495,-15.7532722
"222572","DF","53","IFB - CAMPUS SAMAMBAIA","RODOVIA DF-460 CAMPUS IFB LOTE 02, SAMAMBAIA SUL SAMAMBAIA. 72304-300 Brasília - DF.","(61) 21032300",c(-48.0537031420514, -15.8627000877664),"IF",-48.0537031420514,-15.8627000877664
"222573","DF","53","IFB - CAMPUS GAMA","RODOVIA DF-480 SMA LOTE 1, GAMA. 72429-005 Brasília - DF.","(61) 21032250",c(-48.0531593, -15.99322467),"IF",-48.0531593,-15.99322467
"222584","DF","53","IFB - CAMPUS RIACHO FUNDO","QUADRA QS 16 AREA ESPECIAL 1, SN FAZENDA SUCUPIRA. RIACHO FUNDO I. 71825-621 Brasília - DF.","(61) 21032343",c(-48.00915479, -15.88157238),"IF",-48.00915479,-15.88157238
"222585","DF","53","IFB - CAMPUS SAO SEBASTIAO","QUADRA 02 CONJUNTO 13, AREA ESPECIAL 07. SAO BARTOLOMEU SAO SEBASTIAO. 71697-040 Brasília - DF.","(61) 21938130",c(-47.78033946, -15.89167999),"IF",-47.78033946,-15.89167999
"222694","DF","53","IFB - CAMPUS CEILANDIA","QUADRA QNN 26 AE, S/N ENTRE UNB E METRO. CEILANDIA SUL CEILANDIA. 72220-260 Brasília - DF.","(61) 21032170",c(-48.09866, -15.84295),"IF",-48.09866,-15.84295
"222695","DF","53","IFB - CAMPUS ESTRUTURAL","SCIA AREA ESPECIAL 01 QUADRA 16, CIDADE DO AUTOMOVEL. SCIA - ESTRUTURAL. 71250-000 Brasília - DF.","(61) 21032160",c(-47.9691306, -15.79326484),"IF",-47.9691306,-15.79326484
"222790","DF","53","IFB - CAMPUS RECANTO DAS EMAS","QUADRA 300, NUCLEO RURAL, AVENIDA MONJOLO, 22 CHACARA. RECANTO DAS EMAS. 72620-100 Brasília - DF.","(61) 21032190",c(-48.07721786, -15.91238016),"IF",-48.07721786,-15.91238016
